"JSON_parentId","geometry_type","properties_address_address_country","properties_address_address_formatted","properties_address_street_address","properties_address_postal_code","properties_address_address_locality","properties_address_address_region","properties_image_url","properties_content","properties_id","properties_name","properties_perex","properties_properties","properties_updated_at","properties_url","properties_district","type"
"playgrounds.geometry_d9c28cdfbaf1c4b00e6b2fd3c4c2fb67","Point","Česko","Toruňská 326/3, 18100 Praha-Bohnice, Česko","Toruňská 326/3","18100","Praha","Bohnice","http://www.hristepraha.cz/images/img/124f60c9d87bda76b3a42d3b6730bdf6o.jpg","Větší hřiště se rozkládá, mezi ulicemi Toruňská a Gdaňská (29.A). Děti mohou vyzkoušet asi deset atrakcí. Atraktivní je...","42","Bohnice a Čimice - Bohnice","Nedaleko od sebe leží 2 pěkná hřiště.","","2020-11-01T01:30:06.743Z","http://www.hristepraha.cz/hriste/mapa/bohnice-a-cimice-bohnice","praha-8","Feature"
"playgrounds.geometry_a33541d2bc256a1749788157ab2b6996","Point","Česko","Kosořská 1187/28, 15200 Praha-Hlubočepy, Česko","Kosořská 1187/28","15200","Praha","Hlubočepy","http://www.hristepraha.cz/images/img/f99cca2a9c7cff8fe3bb5033bd594b2bo.jpg","Pokud si chcete výlet užít celý, doporučujeme využít vlak a vystoupit na zastávce Praha Holyně. 50 metrů od zastávky...","138","Prokopské údolí a Dalejské údolí - hřiště 85.C","Máte chuť na půldenní výlet? Jezdíte rádi na kole? Chcete dětem ukázat domácí zvířata? Hrají si děti rády v zeleni? Zajímá vás geologie? Brouzdají se vaše děti rády v potoce? Pokud něco z toho platí, navštivte Prokopské a Dalejské údolí (<b>85</b>).","","2020-11-01T01:30:06.744Z","http://www.hristepraha.cz/hriste/mapa/prokopske-udoli-a-dalejske-udoli-hriste-85-c","praha-5","Feature"
"playgrounds.geometry_9ea48c7e94d3014071b364f9c6dc1f82","Point","Česko","U Lipové aleje 717/25, 10700 Praha-Dubeč, Česko","U Lipové aleje 717/25","10700","Praha","Dubeč","http://www.hristepraha.cz/images/img/b21e90793b2e5102b47a22336d1ce06fo.jpg","Za budovou, v níž sídlí pošta a městská policie, se rozkládá několik hřišť. Dětské hřiště (44.A) má převážně dřevěné...","74","Dubeč - hřiště 44.B","Městská část Praha Dubeč disponuje hezčím dětským hřištěm (pro všechny věkové kategorie dětí) než mnohé větší městské části. V areálu se také nachází několik sportovišť.","","2020-11-01T01:30:06.743Z","http://www.hristepraha.cz/hriste/mapa/dubec-hriste-44-b","praha-dubec","Feature"
"playgrounds.geometry_d280f9e512125d5248f5f7eaafca6b49","Point","Česko","náměstí Generála Kutlvašra, 10003 Praha-Nusle, Česko","náměstí Generála Kutlvašra","10003","Praha","Nusle","http://www.hristepraha.cz/images/img/27212133922ea71f62828fd5ad0ce84fo.jpg","Náměstí Generála Kutlvašra pojmenované po legionáři a veliteli Pražského povstání představuje nevelkou plochu zeleně ve...","139","Náměstí Generála Kutlvašra","Hledáte azyl v parných dnech? Ano? Pak nepřehlédněte pěkné hřiště v Nuslích.","","2020-11-01T01:30:06.744Z","http://www.hristepraha.cz/hriste/mapa/namesti-generala-kutlvasra","praha-4","Feature"
"playgrounds.geometry_96b097d3cf060c4e6fdef0a1296072e8","Point","Česko","Pekařova, 18100 Praha-Čimice, Česko","Pekařova","18100","Praha","Čimice","http://www.hristepraha.cz/images/img/b07bef69aa2b3d96453cabfe59e577f7o.jpg","Větší hřiště se rozkládá, mezi ulicemi Toruňská a Gdaňská (29.A). Děti mohou vyzkoušet asi deset atrakcí. Atraktivní je...","43","Bohnice a Čimice - Čimice","Nedaleko od sebe leží 2 pěkná hřiště.","","2020-11-01T01:30:06.743Z","http://www.hristepraha.cz/hriste/mapa/bohnice-a-cimice-cimice","praha-8","Feature"
"playgrounds.geometry_dec2dcf01c5bb900221a83e5115ad1a7","Point","Česko","Rezlerova, 10900 Praha-Petrovice, Česko","Rezlerova","10900","Praha","Petrovice","http://www.hristepraha.cz/images/img/41f5da50efa25a661c878386afd9fe27o.jpg","Za panelovým domem v Rezlerově ulici se rozkládá parkový travnatý prostor. Jeho část byla revitalizovaná na dětská...","101","Sídliště Petrovice - Rezlerova","Lokalita nabízí několik pěkných menších hřišť, jejichž spojením vznikne zajímavá trasa.","","2020-11-01T01:30:06.745Z","http://www.hristepraha.cz/hriste/mapa/sidliste-petrovice-rezlerova","praha-petrovice","Feature"
"playgrounds.geometry_0a605120976368d14e0c4373770c1570","Point","Česko","14200 Praha-Lhotka, Česko","","14200","Praha","Lhotka","http://www.hristepraha.cz/images/img/4559b569a03bf754c48c1def8d8df4a1o.jpg","Dětské hřiště (77.A) se rozkládá mezi ulicemi Štúrova, Na Větrově a V pláni. Nejlepší přístup je ale z ulice...","85","Sídliště Krč - hřiště 77.A","Máte rádi pirátské příběhy? Pak si nenechte ujít návštěvu této lokality!","","2020-11-01T01:30:06.745Z","http://www.hristepraha.cz/hriste/mapa/sidliste-krc-hriste-77-a","praha-4","Feature"
"playgrounds.geometry_8ba68f5b932e8ccee7ed17d2f634448a","Point","Česko","Stříbrského 681/18, 14900 Praha-Háje, Česko","Stříbrského 681/18","14900","Praha","Háje","http://www.hristepraha.cz/images/img/2bb040bc730e7304da385da87d5c837do.jpg","Hřiště (55) leží cca 300 m od stanice metra Háje, u budovy Městského úřadu Prahy 11, na ulici Ocelíkova. Dominantní...","120","Háje - Ocelíkova","U stanic metra Háje najdete hřiště s netradičním dominantním herním prvkem.","","2020-11-01T01:30:06.743Z","http://www.hristepraha.cz/hriste/mapa/haje-ocelikova","praha-11","Feature"
"playgrounds.geometry_9a734979b5cc79a541b32a19bdc62447","Point","Česko","Křejpského, 14900 Praha-Chodov, Česko","Křejpského","14900","Praha","Chodov","http://www.hristepraha.cz/images/img/7c25373b633e90b8dcdb762a24a0ad74o.jpg","Půjdete-li z Opatova ve směru na Háje (prostor parku), na louce nejprve uvidíte lanovou síťovou sestavu...","62","Opatov - hřiště 38.B","U stanic metra Opatov lze navštívit několik hřišť.","","2020-11-01T01:30:06.744Z","http://www.hristepraha.cz/hriste/mapa/opatov-hriste-38-b","praha-11","Feature"
"playgrounds.geometry_6ee28b8c12ed27805765c984b1b572a9","Point","Česko","10900 Praha-Horní Měcholupy, Česko","","10900","Praha","Horní Měcholupy","http://www.hristepraha.cz/images/img/97df34fd1bf56cffb074d266118ad502o.jpg","Za panelovým domem v Rezlerově ulici se rozkládá parkový travnatý prostor. Jeho část byla revitalizovaná na dětská...","102","Sídliště Petrovice - Veronské náměstí","Lokalita nabízí několik pěkných menších hřišť, jejichž spojením vznikne zajímavá trasa.","","2020-11-01T01:30:06.745Z","http://www.hristepraha.cz/hriste/mapa/sidliste-petrovice-veronske-namesti","praha-15","Feature"
"playgrounds.geometry_1da137f80e7330c2cc1f738eac531d14","Point","Česko","Výstavní, 10900 Praha-Háje, Česko","Výstavní","10900","Praha","Háje","http://www.hristepraha.cz/images/img/2d73f6832f5ce39fc5987d27d9f4541fo.jpg","Popis: Asi 300 m od prodejny Lidl v Hornoměcholupské ulici se na okraji louky rozkládá první hřiště (43.A). Tvoří ho...","72","Hostivařský lesopark (východní část) - hřiště 43.B","Trasa je vhodným polodenním rodinným výletem.","","2020-11-01T01:30:06.743Z","http://www.hristepraha.cz/hriste/mapa/hostivarsky-lesopark-vychodni-cast-hriste-43-b","praha-15","Feature"
"playgrounds.geometry_45879afb814356705c6e2aee3bc56c71","Point","Česko","Korunní, 12009 Praha-Vinohrady, Česko","Korunní","12009","Praha","Vinohrady","http://www.hristepraha.cz/images/img/5b32cbf9a9dc515aadceac62a2c231b3o.jpg","Kroužky a Proužky jsou dětským programem „Kavárny Maluj“ a nabízí aktivity pro děti a jejich rodiče.Naše činnost: -...","320","Kroužky a Proužky","","","2020-11-01T01:30:06.743Z","http://www.hristepraha.cz/hriste/mapa/krouzky-a-prouzky","praha-2","Feature"
"playgrounds.geometry_f9a95b14356dec6b9b288fd3ecb71db8","Point","Česko","Prokopské údolí, 15200 Praha-Hlubočepy, Česko","Prokopské údolí","15200","Praha","Hlubočepy","http://www.hristepraha.cz/images/img/590da62b6d49e5adcff3bf3227529a7co.jpg","Pokud si chcete výlet užít celý, doporučujeme využít vlak a vystoupit na zastávce Praha Holyně. 50 metrů od zastávky...","137","Prokopské údolí a Dalejské údolí - hřiště 85.B","Máte chuť na půldenní výlet? Jezdíte rádi na kole? Chcete dětem ukázat domácí zvířata? Hrají si děti rády v zeleni? Zajímá vás geologie? Brouzdají se vaše děti rády v potoce? Pokud něco z toho platí, navštivte Prokopské a Dalejské údolí (<b>85</b>).","","2020-11-01T01:30:06.744Z","http://www.hristepraha.cz/hriste/mapa/prokopske-udoli-a-dalejske-udoli-hriste-85-b","praha-5","Feature"
"playgrounds.geometry_c21cd180f9efa1dc29d918c3fbc43708","Point","Česko","V Bytovkách 744/6, 10400 Praha-Uhříněves, Česko","V Bytovkách 744/6","10400","Praha","Uhříněves","http://www.hristepraha.cz/images/img/3063cb73fbe56ec3d7461a627d54b68do.jpg","Cestu doporučujeme zahájit na Novém náměstí, kde mj. sídlí městské muzeum. Za bytovými domy (směrem k vlakové trati)...","131","Uhříněves - hřiště 82.B","Hřiště, lesopark a další zajímavá místa, to je Uhříněves.","","2020-11-01T01:30:06.745Z","http://www.hristepraha.cz/hriste/mapa/uhrineves-hriste-82-b","praha-22","Feature"
"playgrounds.geometry_ef4fd9bcea07830b5917614d4d674e0c","Point","Česko","Prokopské údolí, 15800 Praha-Jinonice, Česko","Prokopské údolí","15800","Praha","Jinonice","http://www.hristepraha.cz/images/img/037d047d8caf84111c2ccd5e5af33944o.jpg","Pokud si chcete výlet užít celý, doporučujeme využít vlak a vystoupit na zastávce Praha Holyně. 50 metrů od zastávky...","136","Prokopské údolí a Dalejské údolí - hřiště 85.A","Máte chuť na půldenní výlet? Jezdíte rádi na kole? Chcete dětem ukázat domácí zvířata? Hrají si děti rády v zeleni? Zajímá vás geologie? Brouzdají se vaše děti rády v potoce? Pokud něco z toho platí, navštivte Prokopské a Dalejské údolí (<b>85</b>).","","2020-11-01T01:30:06.744Z","http://www.hristepraha.cz/hriste/mapa/prokopske-udoli-a-dalejske-udoli-hriste-85-a","praha-5","Feature"
"playgrounds.geometry_f9ae81c7b5fb83331ea53ccd600229e4","Point","Česko","Za Žižkovskou vozovnou, 13000 Praha-Žižkov, Česko","Za Žižkovskou vozovnou","13000","Praha","Žižkov","http://www.hristepraha.cz/images/img/a0cad32d8f589504e4e67ff2ec2f7e7fo.jpg","Dětské hřiště (60.A) najdete na konci ulice Strážní, ovšem na opačném konci než lokalitu Židovské pece. Hřiště se...","100","Na Krejcárku - hřiště 60.B","Lokalita se skvěle hodí pro rodiny s dětmi různého stáří a také pro ty, kteří chtějí vyzkoušet netradiční sport!","","2020-11-01T01:30:06.744Z","http://www.hristepraha.cz/hriste/mapa/na-krejcarku-hriste-60-b","praha-3","Feature"
"playgrounds.geometry_7bcff000fdf738989758a0ece4513073","Point","Česko","Drimlova 2364/2, 15500 Praha-Stodůlky, Česko","Drimlova 2364/2","15500","Praha","Stodůlky","http://www.hristepraha.cz/images/img/bedd36a527632368ee03dd9b86819d60o.jpg","Hřiště se rozkládají mezi panelovými domy. Zjednodušeně lze říci, že tvoří dvě skupiny. První (52.A) se rozkládá mezi...","110","Velká Ohrada - oblast 52.B","Na sídlišti Velká Ohrada lze nedaleko od sebe navštívit skoro tucet hřišť!","","2020-11-01T01:30:06.745Z","http://www.hristepraha.cz/hriste/mapa/velka-ohrada-oblast-52-b","praha-13","Feature"
"playgrounds.geometry_f64622000868078e048a22dbe4393fd5","Point","Česko","Horovo náměstí, 18000 Praha-Libeň, Česko","Horovo náměstí","18000","Praha","Libeň","http://www.hristepraha.cz/images/img/e985f2912718e530b12c27c0fc1f9cd9o.jpg","Výlet začneme v Thomayerových sadech, které se táhnou podél jednoho z vltavských ramen a potoka Rokytky, jenž zde ústí...","221","Stará Libeň - U Rokytky","Lákadlem pro využití volného času budou nejen hřiště, ale i několik zajímavých míst.","","2020-11-01T01:30:06.745Z","http://www.hristepraha.cz/hriste/mapa/stara-liben-u-rokytky","praha-8","Feature"
"playgrounds.geometry_a59b7e5a624627686c878bb3546476c2","Point","Česko","Sauerova, 13000 Praha-Žižkov, Česko","Sauerova","13000","Praha","Žižkov","http://www.hristepraha.cz/images/img/19b35a28fe4849c8a5b93f36866865fbo.jpg","Vystoupáte-li po schodech na Vrch sv. Kříže, poznáte jedno z nejhezčích pražských hřišť (Vrch sv. kříže západ-14.A)...","28","Vrch sv. Kříže - 14.C","Máte rádi vlaky? Jestliže ano, navštivte hřiště nedaleko Olšanského náměstí.","","2020-11-01T01:30:06.745Z","http://www.hristepraha.cz/hriste/mapa/vrch-sv-krize-14-c","praha-3","Feature"
"playgrounds.geometry_621a552b37dde53c70207acd78868bb7","Point","Česko","K Obecním hájovnám ev.98, 10200 Praha-Hostivař, Česko","K Obecním hájovnám ev.98","10200","Praha","Hostivař","http://www.hristepraha.cz/images/img/affa87f75f6b3a32d2e3dccffec23b84o.jpg","Naši cestu můžete začít např. v ulici K obecním hájovnám. Na jejím konci leží hájenka a u ní se rozkládá ""Divoká...","277","Hostivařský lesopark, západ - hřiště 56.A","Hostivařský lesopark představuje jednu ze zelených oáz hlavního města. Najdete zde dětská hřiště i další zajímavá místa.","playgrounds.properties_ec88ef2e360f8f1437a385285fe4d1cd","2020-11-01T01:30:06.743Z","http://www.hristepraha.cz/hriste/mapa/hostivarsky-lesopark-zapad-hriste-56-a","praha-15","Feature"
"playgrounds.geometry_c59c8e375dfa52af0b68335a1cbc66fa","Point","Česko","11665 Praha-Malá Strana, Česko","","11665","Praha","Malá Strana","http://www.hristepraha.cz/images/img/8593fea034cead0f397d25b75cd666ddo.jpg","V parku Kampa, na terase u Rybí restaurace, leží nevelké, ale moderní hřiště pro malé děti (63.A). Zahrnuje asi 10...","94"," Kampa a Karlův most - Karlův most","Na malostranském nábřeží Vltavy najdeme dvě menší hřiště, takže jejich návštěvu je vhodné zařadit jako doplňkovou aktivitu při procházce centrem města.","playgrounds.properties_567954c19556c2f58616f68bac612b2e","2020-11-01T01:30:06.742Z","http://www.hristepraha.cz/hriste/mapa/kampa-a-karluv-most-karluv-most","praha-1","Feature"
"playgrounds.geometry_d9c5c1b9252621792720b579a793621f","Point","Česko","Rybalkova, PRAHA 2 Praha-Vinohrady, Česko","Rybalkova","PRAHA 2","Praha","Vinohrady","http://www.hristepraha.cz/images/img/dbc2c34584d270ec30d00084541ea2e5o.jpg","Ve velmi členitém terénu je umístěn jeden z nejromantičtějších parků na území města. V parku roste přes 120 druhů...","17","Havlíčkovy sady (Grőbovka)","Chcete-li poznat opravdu krásný park, vydejte se na Vinohrady.","playgrounds.properties_216f6cafaf0142dcd082fb2b7c31eb11","2020-11-01T01:30:06.743Z","http://www.hristepraha.cz/hriste/mapa/havlickovy-sady-grobovka","praha-2","Feature"
"playgrounds.geometry_bb96e78dc3135f84930145af0f31cfb3","Point","Česko","K Zelené louce, 14200 Praha-Kunratice, Česko","K Zelené louce","14200","Praha","Kunratice","http://www.hristepraha.cz/images/img/99ad2fd7389b341c51482d75b1b2ea21o.jpg","Nejlepší bude, pokud od autobusové zastávky Ikem půjdete ulicí K Zelené louce a poté Zelená louka, k okraji lesa. Stojí...","115","Kunratický les (zoo-koutky) - hřiště 74.A","Pokud máte rádi zvířata, nenechte si ujít návštěvu dvou zoo-koutků. V jednom uvidíte zvířata domácí, ve druhém daňky.","playgrounds.properties_e04bcd2aa46acab0557521c61e3bd0c4","2020-11-01T01:30:06.743Z","http://www.hristepraha.cz/hriste/mapa/kunraticky-les-zoo-koutky-hriste-74-a","praha-kunratice","Feature"
"playgrounds.geometry_78b37383b22b3a6fbb1f21284997812a","Point","Česko","U Tyršovy školy, 15800 Praha-Jinonice, Česko","U Tyršovy školy","15800","Praha","Jinonice","http://www.hristepraha.cz/images/img/3f3d4dc861ebe2740a7e309963369f8ao.jpg"," Komplex hřišť (41) se rozkládá v zeleni parku u Bochovské ulice. Tvoří jej dvě oplocená dětská hřiště a dvě pískové...","67","Jinonice (ZŠ Tyršova)","V parčíku před základní školou leží několik menších hřišť.","playgrounds.properties_578cdb59ca87effea3fe16046714c737","2020-11-01T01:30:06.743Z","http://www.hristepraha.cz/hriste/mapa/jinonice-zs-tyrsova","praha-5","Feature"
"playgrounds.geometry_25a1a6c2328af6596e3dc02102185834","Point","Česko","170 00 Praha-Holešovice, Česko","","170 00","Praha","Holešovice","http://www.hristepraha.cz/images/img/01ca9532f92deed8edf93ca57c454450o.jpg","V Letenských sadech (směrem k Národnímu technickému muzeu) jsou 3 hřiště. Dvě malá a jedno relativně rozsáhlé...","45","Letenské sady - hřiště u Letenského zámečku","Lokalita v sobě spojuje dětská hřiště, zeleň a muzea.","playgrounds.properties_08a2506e42df7b7e768dcb529b563030","2020-11-01T01:30:06.744Z","http://www.hristepraha.cz/hriste/mapa/letenske-sady-hriste-u-letenskeho-zamecku","praha-7","Feature"
"playgrounds.geometry_e7e34c7058246ac4bb15639a356e8341","Point","Česko","Brusnický tunel, 16201 Praha-Hradčany, Česko","Brusnický tunel","16201","Praha","Hradčany","http://www.hristepraha.cz/images/img/f2b2e4bf2edf113bcb23019a84e15a99o.jpg","Park Maxe van der Stoela byl revitalizován údajně za 60 milionů korun. Za tuto vysokou částku získala veřejnost plochu...","213","Park Maxe van der Stoela","Pokud se chystáte na Pražský hrad, můžete dětem jeho prohlídku okořenit návštěvou parku, jehož hlavní atrakcí bude vodní soustava.","playgrounds.properties_1088b00f70a43777ebd9478253fed7fa","2020-11-01T01:30:06.744Z","http://www.hristepraha.cz/hriste/mapa/park-maxe-van-der-stoela","praha-6","Feature"
"playgrounds.geometry_c7020231dfbe4f3310a2d3950caa83fe","Point","Česko","Šebelova 875/4, 19800 Praha-Černý Most, Česko","Šebelova 875/4","19800","Praha","Černý Most","http://www.hristepraha.cz/images/img/05884db0382d642111108750be85da6fo.jpg","V zeleni u panelových domů, mezi ulicemi Breitcetlova a Šebelova (u mateřské školky), se rozkládá první areál (72.A)...","81","Černý Most - hřiště 72.A","Na sídlišti Černý Most můžete nedaleko sebe navštívit dva menší areály s dětskými hřišti.","playgrounds.properties_5986205024f681269b04cadd747f9e27","2020-11-01T01:30:06.743Z","http://www.hristepraha.cz/hriste/mapa/cerny-most-hriste-72-a","praha-14","Feature"
"playgrounds.geometry_47696bbe98f940d4615cb4f1c853f1fa","Point","Česko","Havránkova 1655/1, 18200 Praha-Kobylisy, Česko","Havránkova 1655/1","18200","Praha","Kobylisy","http://www.hristepraha.cz/images/img/d322b106958fc38bb46096ce659853c4o.jpg","Od autobusové stanice Šimůnkova se vydáte kolem ZŠ Žernosecká, Šimůnkovou ulicí do Ďáblického háje. Pokud půjdete se...","46","Ďáblický háj - hřiště 30.A","Ďáblický háj nabízí dvě pěkná hřiště a několik zajímavých míst. Jen na vás záleží, která navštívíte.","playgrounds.properties_6bb5118cb56cb707d384703170c40346","2020-11-01T01:30:06.743Z","http://www.hristepraha.cz/hriste/mapa/dablicky-haj-hriste-30-a","praha-dablice","Feature"
"playgrounds.geometry_4680cb7aeae642d31d1b9d6a44b414f9","Point","Česko","V Lázních, 15200 Praha-Malá Chuchle, Česko","V Lázních","15200","Praha","Malá Chuchle","http://www.hristepraha.cz/images/img/5088b6bd29d5fabbc5594a6a7723f75co.jpg","U Branického mostu se rozkládá menší zrekonstruované dětské hřiště (48.A). Výhodou je, že atrakce (multifunkční...","97","Malá Chuchle - zoo koutek","Výlet je pro všechny, kteří se nebojí trochy fyzické námahy, mají rádi zvířata a chtějí poznat možná nejkrásnější lesní hřiště v Praze.","playgrounds.properties_70eca801b9c156ab30c6b725092c3634","2020-11-01T01:30:06.744Z","http://www.hristepraha.cz/hriste/mapa/mala-chuchle-zoo-koutek","praha-velka-chuchle","Feature"
"playgrounds.geometry_c10364bbd52dbefd74bdf5157f7652aa","Point","Česká republika","Martinická 988/5, 19700 Praha-Kbely, Česká republika","Martinická 988/5","19700","Praha","Kbely","http://www.hristepraha.cz/images/img/f89dfd3f25442ab70edae1ec5e8e2ec0o.jpg","Centrální park (70) rozděluje silnice na dvě nestejně velké části. V rozsáhlejší, která je vymezena silnicí a...","95","Kbely","Revitalizace centrálního parku v městské části Kbely stála desítky milionů. Místo tady našla také dětská hřiště.","playgrounds.properties_7f0a6bc936e0409a3f5e5cad5ae3a0cc","2020-11-01T01:30:06.743Z","http://www.hristepraha.cz/hriste/mapa/kbely","praha-19","Feature"
"playgrounds.geometry_62c94c8278f41c2d33e8f9f8928fddf4","Point","Česko","Mírového hnutí, 148 00 Praha-Chodov, Česko","Mírového hnutí","148 00","Praha","Chodov","http://www.hristepraha.cz/images/img/3c8f2e60bcb108416d04b5a53628b401o.jpg","Hřiště se rozkládá na
rozsáhlé ploše v&nbsp;blízkosti komplexu firmy Agrofert. Také proto jsou na
jeho ploše rozmístěny...","352","Klikpark","Moderně pojaté hřiště s dětskými atrakcemi ve tvaru květin, bohužel bez stínu a sociálního zařízení.

","playgrounds.properties_0fba66c475f6a7eb4b955d3cd80b558b","2020-11-01T01:30:06.743Z","http://www.hristepraha.cz/hriste/mapa/klikpark","praha-11","Feature"
"playgrounds.geometry_a2ef523059f94d8f3f0e841cb8dd40d9","Point","Česko","Hellichova 300/13, 11800 Praha-Malá Strana, Česko","Hellichova 300/13","11800","Praha","Malá Strana","http://www.hristepraha.cz/images/img/f89fd9f1ec2c393742226562f30e75cbo.jpg","V zeleni na jeho úbočí leží pět dětských hřišť. Hezké je to u Hladové zdi (21.B), kousek od rozhledny. Děti mohou...","36","Petřín - Újezd","Vrch Petřín spolu s proslulou rozhlednou patří k dominantám hlavního města.","playgrounds.properties_0eb0c0cd589eae45fd5bc651c21bad38","2020-11-01T01:30:06.744Z","http://www.hristepraha.cz/hriste/mapa/petrin-ujezd","praha-1","Feature"
"playgrounds.geometry_207c2f3f0ca7fb9e160842165a7e243d","Point","Česko","Nad Královskou oborou, 170 00 Praha-Bubeneč, Česko","Nad Královskou oborou","170 00","Praha","Bubeneč","http://www.hristepraha.cz/images/img/197754d06e594c06d07b3edef144757fo.jpg","Stromovku tvoří rozlehlý park s hustou sítí asfaltových cest, které se hodí pro cyklistiku i in-line bruslení. Najdeme...","3","Stromovka - hřiště Koníček","Stromovka nám nabídne tolik, že se vyplatí zajít sem na celý den.","playgrounds.properties_37c52afea7c608e8751ba82fd43d4f46","2020-11-01T01:30:06.745Z","http://www.hristepraha.cz/hriste/mapa/stromovka-hriste-konicek","praha-7","Feature"
"playgrounds.geometry_b02777202ca389ef9ad4d241b43b791c","Point","Česko","Jižní spojka, 14100 Praha-Michle, Česko","Jižní spojka","14100","Praha","Michle","http://www.hristepraha.cz/images/img/0fba90ae2e1c700f9d966b5d0e8ffeado.jpg","Návštěvu tohoto hřiště je nejlepší pojmout jako pěší, případně cyklistický výlet. Cesta totiž vede po cyklostezce – v...","317","Michelský les – západ","Bohatě vybavené lesní hřiště (89) spojené s příjemnou procházkou a možností dobrého občerstvení.","playgrounds.properties_b078b9add67731268479c817d1b399b3","2020-11-01T01:30:06.744Z","http://www.hristepraha.cz/hriste/mapa/michelsky-les-zapad","praha-4","Feature"
"playgrounds.geometry_c452e3f4ba6f78547c232e05ab565eef","Point","Česko","Dvořákovo nábřeží, 110 000 Praha-Staré Město, Česko","Dvořákovo nábřeží","110 000","Praha","Staré Město","http://www.hristepraha.cz/images/img/e535806fc947c24977a957e7a4f7789co.jpg","Komplex Na Františku (4.A), v těsném sousedství Anežského kláštera, tvoří několik sportovišť a je vhodný pro aktivní...","11","Na Františku - komplex Na Františku","Pokud rádi sportujete, nenechte si ujít návštěvu volno-časového centra v historickém jádru města.","playgrounds.properties_8e8381fa47fffb991dade9e1be88d49f","2020-11-01T01:30:06.744Z","http://www.hristepraha.cz/hriste/mapa/na-frantisku-komplex-na-frantisku","praha-1","Feature"
"playgrounds.geometry_c599f9ed64af80f7987a1eef7a43cb4b","Point","Česko","Tesaříkova, 10600 Praha-Hostivař, Česko","Tesaříkova","10600","Praha","Hostivař","http://www.hristepraha.cz/images/img/c7d117246b058df2d3c3d9da0544ce04o.jpg","Dětské hřiště (66) je lokalizováno na sídlišti, vedle budovy, kde jsou lékařské ordinace a lékárna Košík. Hřiště se...","107","Sídliště Košík - Toulcův dvůr","Dětské hřiště tentokrát představuje spíše doprovodnou aktivitu. Tou hlavní by měla být návštěva Toulcova dvora.","playgrounds.properties_b3302213b0f56ead7197950b8fc44faf","2020-11-01T01:30:06.745Z","http://www.hristepraha.cz/hriste/mapa/sidliste-kosik-toulcuv-dvur","praha-15","Feature"
"playgrounds.geometry_9bdbf778561ddc7fb1fd3758d5e65c29","Point","Česko","Holečkova, 150 000 Praha-Smíchov, Česko","Holečkova","150 000","Praha","Smíchov","http://www.hristepraha.cz/images/img/74589de4e539a5206b5b4a628895f83ao.jpg","Do parku se nejlépe dostanete z 1. patra nákupního centra. U toalet začíná přechodová lávka nad Kartouzskou ulicí, po...","18","Sacré-Coeur","Za nákupním centrem Nový Smíchov objevíte park, v něm pěkné dětské hřiště <b>(22)</b> a stanici přírodovědců.","playgrounds.properties_61b0248710d15303f4d3fb688eb5f3d1","2020-11-01T01:30:06.744Z","http://www.hristepraha.cz/hriste/mapa/sacre-coeur","praha-5","Feature"
"playgrounds.geometry_d8560a4119ad50743713c71c5cc00e38","Point","Česko","Kremnická 3026/1, 14100 Praha-Záběhlice, Česko","Kremnická 3026/1","14100","Praha","Záběhlice","http://www.hristepraha.cz/images/img/2c5c43b44a3936b0601758fb840de08fo.jpg","První hřiště (75.A) je situováno mezi Jižní spojkou a ulicí Kremnická. Dětské hřiště se skládá ze dvou částí: malé...","111","Spořilov - Kremnická","Nedaleko od sebe leží dva areály, nejen s dětskými hřišti.","playgrounds.properties_65bb87b52041974429bff283da17d678","2020-11-01T01:30:06.745Z","http://www.hristepraha.cz/hriste/mapa/sporilov-kremnicka","praha-4","Feature"
"playgrounds.geometry_5853be1a43d0871053f84fde15fc5e6e","Point","Česko","Malinová 1716/18, 10600 Praha-Záběhlice, Česko","Malinová 1716/18","10600","Praha","Záběhlice","http://www.hristepraha.cz/images/img/d32c16a168be08b6d6dc11fe4340f6e0o.jpg","Na ulici Malinová leží poměrně velké hřiště (37.A), které zaujme barevností a pestrostí. Obsahuje asi 15 atrakcí. Děti...","284","Zahradní město - Malinová","Toto sídliště vzniklo původně jako projekt města v zeleni. Proto zde bylo vybudováno více dětských hřišť a později byl revitalizován park.","playgrounds.properties_801c0044c59753fe5f79a9778d2ec61f","2020-11-01T01:30:06.745Z","http://www.hristepraha.cz/hriste/mapa/zahradni-mesto-malinova","praha-10","Feature"
"playgrounds.geometry_8bd50368cdc73cd8f34c9c1c82616bef","Point","Česko","Pražačka, CZ - 130 00 Praha-Žižkov, Česko","Pražačka","CZ - 130 00","Praha","Žižkov","http://www.hristepraha.cz/images/img/d5f023b4ede3a11e52cf2c3993779573o.jpg","Děti si mohou pohrát na několika menších hřištích. První, od ulice Pražačka (Vítkov 2-13.B), je neoplocené a krom...","24","Vítkov - Vítkov 2","Vypravíte-li se na jeden z nejznámějších pražských vrchů, nebudete litovat.","playgrounds.properties_cd03f123064e5095b4cca463eefa342e","2020-11-01T01:30:06.745Z","http://www.hristepraha.cz/hriste/mapa/vitkov-vitkov-2","praha-3","Feature"
"playgrounds.geometry_af7a6d107a1a4425db3099951fea0d1e","Point","Česko","Jeseniova 2832/26, 13000 Praha-Žižkov, Česko","Jeseniova 2832/26","13000","Praha","Žižkov","http://www.hristepraha.cz/images/img/5f4778a771889e3deafa048aaa758940o.jpg","Vystoupáte-li po schodech na Vrch sv. Kříže, poznáte jedno z nejhezčích pražských hřišť (Vrch sv. kříže západ-14.A)...","26","Vrch sv. Kříže - Vrch sv. kříže západ","Máte rádi vlaky? Jestliže ano, navštivte hřiště nedaleko Olšanského náměstí.","playgrounds.properties_7e27958f0284c51717785adb7b71595e","2020-11-01T01:30:06.745Z","http://www.hristepraha.cz/hriste/mapa/vrch-sv-krize-vrch-sv-krize-zapad","praha-3","Feature"
"playgrounds.geometry_67fac6526783c908696978e8135457f3","Point","Česko","Výhledské náměstí 517/4, 16500 Praha-Suchdol, Česko","Výhledské náměstí 517/4","16500","Praha","Suchdol","http://www.hristepraha.cz/images/img/4066e81870663188ca84ceb69846353do.jpg","Hřiště (16) je situováno v nevelkém parčíku. Stromy, které rostou kolem, poskytují částečný stín. Hracích prvků je asi...","33","Suchdol","Areál na Výhledském náměstí zahrnuje dětské hřiště a sportoviště. Nedaleko se rozkládá rozlehlý komplex České zemědělské univerzity.","playgrounds.properties_069188d6a7641c03dd48129e33b4b21e","2020-11-01T01:30:06.745Z","http://www.hristepraha.cz/hriste/mapa/suchdol","praha-suchdol","Feature"
"playgrounds.geometry_8f619ece447b3b02b0a2d0da30873aa1","Point","Česko","Václava Trojana 1539/11, 10400 Praha-Uhříněves, Česko","Václava Trojana 1539/11","10400","Praha","Uhříněves","http://www.hristepraha.cz/images/img/886a0327c5478949d05c60b0b368aa01o.jpg","Cestu doporučujeme zahájit na Novém náměstí, kde mj. sídlí městské muzeum. Za bytovými domy (směrem k vlakové trati)...","132","Uhříněves - hřiště 82.C","Hřiště, lesopark a další zajímavá místa, to je Uhříněves.","playgrounds.properties_dd05056af4c0f7b504dcf5b585091a43","2020-11-01T01:30:06.745Z","http://www.hristepraha.cz/hriste/mapa/uhrineves-hriste-82-c","praha-22","Feature"
"playgrounds.geometry_881f8ecd9fe123f77af485a5bee6f2e7","Point","Česko","Sekaninova, 12800 Praha-Nusle, Česko","Sekaninova","12800","Praha","Nusle","http://www.hristepraha.cz/images/img/2d995cd0f9f0535b62c591a3cd13f6aao.jpg","Dětské hřiště leží v parku na břehu Botiče, kolem něhož vede cyklo a in-line
stezka. V oplocené části najdete asi tucet...","370","Folimanka","Pod Nuselským mostem je situován komplex sportovišť a dětských hřišť <b>(80)</b>.","playgrounds.properties_2c72851f130d1bf37364faf9f7ecb704","2020-11-01T01:30:06.743Z","http://www.hristepraha.cz/hriste/mapa/folimanka","praha-2","Feature"
"playgrounds.geometry_bc223d207d89242864012ebed277a87a","Point","Česko","Žernosecká, 18200 Praha-Kobylisy, Česko","Žernosecká","18200","Praha","Kobylisy","http://www.hristepraha.cz/images/img/a52d4279517953728e9ca5435bbdf1c9o.jpg","Od autobusové stanice Šimůnkova se vydáte kolem ZŠ Žernosecká, Šimůnkovou ulicí do Ďáblického háje. Pokud půjdete se...","47","Ďáblický háj - hřiště 30.B","Ďáblický háj nabízí dvě pěkná hřiště a několik zajímavých míst. Jen na vás záleží, která navštívíte.","playgrounds.properties_5105f3200b808848eb5393791ffcb028","2020-11-01T01:30:06.743Z","http://www.hristepraha.cz/hriste/mapa/dablicky-haj-hriste-30-b","praha-dablice","Feature"
"playgrounds.geometry_3b302d8532ab9429341d37a48d7a59de","Point","Česko","19800 Praha-Černý Most, Česko","","19800","Praha","Černý Most","http://www.hristepraha.cz/images/img/fea0da8f26bc6c176085c0f2c7d20b11o.jpg","V zeleni u panelových domů, mezi ulicemi Breitcetlova a Šebelova (u mateřské školky), se rozkládá první areál (72.A)...","82","Černý Most - hřiště 72.B","Na sídlišti Černý Most můžete nedaleko sebe navštívit dva menší areály s dětskými hřišti.","playgrounds.properties_f51aadd951243d6d9799b1fd1fb663d6","2020-11-01T01:30:06.743Z","http://www.hristepraha.cz/hriste/mapa/cerny-most-hriste-72-b","praha-14","Feature"
"playgrounds.geometry_08c93d984b88fc0ac145151b6b93ed4e","Point","Česko","Butovická, 15800 Praha-Jinonice, Česko","Butovická","15800","Praha","Jinonice","http://www.hristepraha.cz/images/img/d89036bb6efe61b051633a27fe170595o.jpg","Oplocené hřiště (51) s necelou desítkou prvků se rozkládá mezi stromy u tenisového areálu, na Butovické ulici...","92","Jinonice - Butovická ulice","V parku, vedle tenisového areálu a rybníka, najdete menší hřiště, jehož návštěva je ideální volbou pro milovníky tenisu.","playgrounds.properties_6b05946abdeeedc3c104874503d0029a","2020-11-01T01:30:06.743Z","http://www.hristepraha.cz/hriste/mapa/jinonice-butovicka-ulice","praha-5","Feature"
"playgrounds.geometry_be20a260a39d297f3d77c71a82250817","Point","Česko","Žernosecká, 18200 Praha-Kobylisy, Česko","Žernosecká","18200","Praha","Kobylisy","http://www.hristepraha.cz/images/img/d52166670a72328e0d0248ef9346fb6ao.jpg","Na dohled autobusové zastávky Bojasova se na rozlehlé ploše rozkládá dětské hřiště (50). Kromě klasických atrakcí...","87","Žernosecká - Čumpelíkova","V bezprostřední blízkosti Ďáblického háje leží pěkné hřiště.","playgrounds.properties_ab6b896df21bae5d4491353464c6abdf","2020-11-01T01:30:06.746Z","http://www.hristepraha.cz/hriste/mapa/zernosecka-cumpelikova","praha-8","Feature"
"playgrounds.geometry_8a454c5b3806cd9e0fd59335f9e3b56a","Point","Česko","Rošických, 150 000 Praha-Malá Strana, Česko","Rošických","150 000","Praha","Malá Strana","http://www.hristepraha.cz/images/img/5d289e996836fcc9c74eaea9f20d6771o.jpg"," Tzv. Dolní hřiště (79.A) u Arbesova náměstí tvoří např. domek s palisádou a prolézacím tubusem, velká multifunkční...","83","Kinského zahrada - Dolní hřiště","Na jižním úbočí Petřína se rozkládá upravená zahrada, která ukrývá klasicistně-empírový letohrádek a dvě moderní hřiště.","playgrounds.properties_11aca255f7a1a8a9acd6ee88eea2458f","2020-11-01T01:30:06.743Z","http://www.hristepraha.cz/hriste/mapa/kinskeho-zahrada-dolni-hriste","praha-5","Feature"
"playgrounds.geometry_2754b05de9dd7ecad6b52c90bee956dc","Point","Česko","170 00 Praha-Holešovice, Česko","","170 00","Praha","Holešovice","http://www.hristepraha.cz/images/img/113219ee317319108c9812b63c4e0393o.jpg","Dětské hřiště (6) je situováno mezi Kostelní ulicí a Letenskými sady. Hlavní vchod je z Kostelní, ale dostanete se sem...","13","Kostelní","Na okraji Letenských sadů leží rozlehlý areál určený spíše starším dětem.","playgrounds.properties_01160e78e972fa9e9d8b939b010ac6d5","2020-11-01T01:30:06.743Z","http://www.hristepraha.cz/hriste/mapa/kostelni","praha-7","Feature"
"playgrounds.geometry_a27014f8fd3639feb49a54c6a3eb6323","Point","Česko","Pod Akáty, 15900 Praha-Velká Chuchle, Česko","Pod Akáty","15900","Praha","Velká Chuchle","http://www.hristepraha.cz/images/img/df19344f59d8aea8282182dae49e40e8o.jpg",": U Branického mostu se rozkládá menší zrekonstruované dětské hřiště (48.A). Výhodou je, že atrakce (multifunkční...","98"," Malá Chuchle - hřiště 48.C","Výlet je pro všechny, kteří se nebojí trochy fyzické námahy, mají rádi zvířata a chtějí poznat možná nejkrásnější lesní hřiště v Praze.","playgrounds.properties_dea51b20117ee1b587dbbfe930c7e56e","2020-11-01T01:30:06.742Z","http://www.hristepraha.cz/hriste/mapa/mala-chuchle-hriste-48-c","praha-velka-chuchle","Feature"
"playgrounds.geometry_7f900c34a685766491c28dfd87383a9d","Point","Česko","Tusarova, 17004 Praha-Holešovice, Česko","Tusarova","17004","Praha","Holešovice","http://www.hristepraha.cz/images/img/45565437d5808057aca30c3b6d659157o.jpg","Dětské hřiště (2) se rozkládá v zeleni, na poměrně rozlehlé ploše. Vchod je z ulice Jateční. V areálu rostou vzrostlé...","9","Holešovice, Jateční","Nedaleko Holešovické tržnice, skryté za vysokou zdí, je situováno dětské hřiště.","playgrounds.properties_3160879b3dca87e39e0ff979c193a569","2020-11-01T01:30:06.743Z","http://www.hristepraha.cz/hriste/mapa/holesovice-jatecni","praha-7","Feature"
"playgrounds.geometry_5278042c58b1e6da359287644114e779","Point","Česko","Nad Úžlabinou 3212/30, 10800 Praha-Malešice, Česko","Nad Úžlabinou 3212/30","10800","Praha","Malešice","http://www.hristepraha.cz/images/img/c0aceb1edfa8630393c5f3ac23aa2f5bo.jpg","V ulici Nad Úžlabinou nejprve narazíte na velmi pěkné a netradiční hřiště, které je zaměřeno na procvičení obratnosti...","114","Malešické sídliště","Nedaleko polikliniky Malešice leží mezi domy několik pěkných menších hřišť (lokalita <b>71</b>).","playgrounds.properties_b3cca631cc12187aa7d261db0e92c1cb","2020-11-01T01:30:06.744Z","http://www.hristepraha.cz/hriste/mapa/malesicke-sidliste","praha-10","Feature"
"playgrounds.geometry_07267ff7f31f85f67415c1241e920290","Point","Česko","Rakovského, 143 00 Praha-Modřany, Česko","Rakovského","143 00","Praha","Modřany","http://www.hristepraha.cz/images/img/772d4e2181cf24e799010139218f270ao.jpg","Na podzim 2014 bylo v areálu ZŠ a gymnázia otevřeno moderní víceúčelové centrum (83), které je rozděleno na dvě části...","346","Modřany (Rodopská ulice)","Pokud vaše děti rády sportují nebo s nimi chcete procvičit dopravní značky a pravidla, doporučujeme návštěvu nového sportovního komplexu v Modřanech.","playgrounds.properties_750a64ca941cab00293d1b28e83224df","2020-11-01T01:30:06.744Z","http://www.hristepraha.cz/hriste/mapa/modrany-rodopska-ulice","praha-12","Feature"
"playgrounds.geometry_d0321eeed1449843773c0060c8512a41","Point","Česko","Na Vypichu, 162 06 Praha-Břevnov, Česko","Na Vypichu","162 06","Praha","Břevnov","http://www.hristepraha.cz/images/img/6425b4a6bf15bd3ac5678a2d362fb628o.jpg","V prostoru ohraničeném vysokou zdí najdeme krásný lesopark. Rostou v něm převážně duby a je zde několik státem...","55","Hvězda - dopravní hřiště","Místa spjatá s naší historií, pěkná lesní hřiště a příjemnou procházku, to nabízí obora Hvězda.","playgrounds.properties_ff3cf56392d631dd69db17d66732f597","2020-11-01T01:30:06.743Z","http://www.hristepraha.cz/hriste/mapa/hvezda-dopravni-hriste","praha-6","Feature"
"playgrounds.geometry_f78728de7cb7711e5e914a08a4d11679","Point","Česko","Masná 977/14, 11000 Praha-Staré Město, Česko","Masná 977/14","11000","Praha","Staré Město","http://www.hristepraha.cz/images/img/018d93ca26465b9846baf42bebcad58bo.jpg","Komplex Na Františku (4.A), v těsném sousedství Anežského kláštera, tvoří několik sportovišť a je vhodný pro aktivní...","10","Na Františku - komplex v Masné ulici","Pokud rádi sportujete, nenechte si ujít návštěvu volno-časového centra v historickém jádru města.","playgrounds.properties_f302402f11dfc00e227568f990d1f2a4","2020-11-01T01:30:06.744Z","http://www.hristepraha.cz/hriste/mapa/na-frantisku-komplex-v-masne-ulici","praha-1","Feature"
"playgrounds.geometry_cfb8b41d7f9454f7a260f4ba27103b1c","Point","Česko","K Zelené louce, 14200 Praha-Kunratice, Česko","K Zelené louce","14200","Praha","Kunratice","http://www.hristepraha.cz/images/img/cde06faf84a929fcfac2fe71a83c46dfo.jpg","Nejlepší bude, pokud od autobusové zastávky Ikem půjdete ulicí K Zelené louce a poté Zelená louka, k okraji lesa. Stojí...","116","Kunratický les (zoo-koutky)- hřiště 74.B","Pokud máte rádi zvířata, nenechte si ujít návštěvu dvou zoo-koutků. V jednom uvidíte zvířata domácí, ve druhém daňky.","playgrounds.properties_c8643d39dd8776a8619d5a8e28ce3fd4","2020-11-01T01:30:06.744Z","http://www.hristepraha.cz/hriste/mapa/kunraticky-les-zoo-koutky-hriste-74-b","praha-kunratice","Feature"
"playgrounds.geometry_7999c1a916aba8fa8cc9923c94d04239","Point","Česko","Podolské nábřeží, 12800 Praha-Podolí, Česko","Podolské nábřeží","12800","Praha","Podolí","http://www.hristepraha.cz/images/img/c291f7e3384ec915a08842663664dff9o.jpg","Dětské hřiště (17.A) se nachází v bezprostřední blízkosti tramvajové zastávky. Děti mohou zkusit asi tucet atrakcí,...","31","Podolská vodárna - dětské hřiště","V blízkosti této monumentální stavby leží nedaleko od sebe dětská hřiště a několik sportovišť vhodných pro všechny věkové kategorie, včetně seniorů!","playgrounds.properties_a2070abfc0f3941643c90452261e08e5","2020-11-01T01:30:06.744Z","http://www.hristepraha.cz/hriste/mapa/podolska-vodarna-detske-hriste","praha-4","Feature"
"playgrounds.geometry_949fcd2308443b2175a66f9ad3c962b6","Point","Česko","Kováků 725/14, 15000 Praha-Smíchov, Česko","Kováků 725/14","15000","Praha","Smíchov","http://www.hristepraha.cz/images/img/a3edc39f1ae00eaddc01123eee2430d1o.jpg","Nově zrekonstruované hřiště (92.A)
leží na horní hraně parku Santoška. Tvoří ho rozlehlá písková...","480","Santoška-Na Skalce","Zbrusu nová hřiště v krásném parku uprostřed Smíchova.","playgrounds.properties_fbfc275a892e0a37b96307d7e3bfaa21","2020-11-01T01:30:06.744Z","http://www.hristepraha.cz/hriste/mapa/santoska-na skalce-92-b","praha-5","Feature"
"playgrounds.geometry_7f316f4270edf7438ec42235c21b4c0f","Point","Česko","U Rajské zahrady 2857/1, 13000 Praha-Žižkov, Česko","U Rajské zahrady 2857/1","13000","Praha","Žižkov","http://www.hristepraha.cz/images/img/55e40d189515f56a1118929e1916c2eco.jpg","Velké moderní hřiště „U draka“ (11.A), vhodné pro všechny věkové kategorie dětí, leží v Riegrových sadech. Zajímavé je...","21","Rajská zahrada - Rajská zahrada","V katastru dvou městských částí, ale blízko sebe najdeme unikátní spojení hřiště a parku.","playgrounds.properties_a3332dde1e47b8a75886b15f2cba64a9","2020-11-01T01:30:06.744Z","http://www.hristepraha.cz/hriste/mapa/rajska-zahrada-rajska-zahrada","praha-3","Feature"
"playgrounds.geometry_f4fecede88006d6c8bc4f9f59a80c6ef","Point","Česko","110 000 Praha-Holešovice, Česko","","110 000","Praha","Holešovice","http://www.hristepraha.cz/images/img/9855494fe17b299c2afef1eaac5bf39fo.jpg","V Letenských sadech (směrem k Národnímu technickému muzeu) jsou 3 hřiště. Dvě malá a jedno relativně rozsáhlé...","44","Letenské sady - U hrocha","Lokalita v sobě spojuje dětská hřiště, zeleň a muzea.","playgrounds.properties_597acc40d0c73c5ccd5e9a95859e85d0","2020-11-01T01:30:06.744Z","http://www.hristepraha.cz/hriste/mapa/letenske-sady-u-hrocha","praha-7","Feature"
"playgrounds.geometry_9ee1a15639634452a6718665be20dc5f","Point","Česko","K Hrnčířům, 14900 Praha-Šeberov, Česko","K Hrnčířům","14900","Praha","Šeberov","http://www.hristepraha.cz/images/img/1a0357f068e05ce9abd5e0c7cd506dceo.jpg","Od zastávky MHD případně z přilehlého parkoviště přijdeme po pár desítkách metrů do sportovního areálu, kde jsou v...","303","U Hrnčírů a Sport Šeberov","V Šeberově si najde zábavu celá rodina – sportovní areál sousedí přímo s hřištěm a výběhem se zvířaty.","playgrounds.properties_22d82098dd6e1b67943b31d7fe657fd4","2020-11-01T01:30:06.745Z","http://www.hristepraha.cz/hriste/mapa/u-hrnciru-a-sport-seberov","praha-seberov","Feature"
"playgrounds.geometry_bd576ff54c02b15d1c81e430d3d05db7","Point","Česko","Čentická 2442, 19016 Praha-Újezd nad Lesy, Česko","Čentická 2442","19016","Praha","Újezd nad Lesy","http://www.hristepraha.cz/images/img/a4b15113d9156275edfe05cd71136a8ao.jpg","Dětské hřiště (61) je součástí většího sportovního komplexu, který se rozkládá mezi fotbalovým hřištěm a oplocením ZŠ...","108","Újezd nad Lesy","Újezd nad Lesy leží sice až na okraji Prahy, ale disponuje komplexem, který zaujme děti všech věkových skupin.","playgrounds.properties_cdf09b10c87aa1fad6f5dd57e5d2c44c","2020-11-01T01:30:06.745Z","http://www.hristepraha.cz/hriste/mapa/ujezd-nad-lesy","praha-21","Feature"
"playgrounds.geometry_b5c6e5a11bd4286133490c2963d3e0a3","Point","Česko","Pražačka, CZ - 130 00 Praha-Žižkov, Česko","Pražačka","CZ - 130 00","Praha","Žižkov","http://www.hristepraha.cz/images/img/cd8ab12b89e1ae48539edacc6230031fo.jpg","Děti si mohou pohrát na několika menších hřištích. První, od ulice Pražačka (Vítkov 2-13.B), je neoplocené a krom...","25","Vítkov - Vítkov pro mládež a dospělé","Vypravíte-li se na jeden z nejznámějších pražských vrchů, nebudete litovat.","playgrounds.properties_1e64f39d1a344fd922cfdf2795f55765","2020-11-01T01:30:06.745Z","http://www.hristepraha.cz/hriste/mapa/vitkov-vitkov-pro-mladez-a-dospele","praha-3","Feature"
"playgrounds.geometry_95c0dd912fadcd9d745d120f171db403","Point","Česko","Pod Lipkami, 22000 Praha-Smíchov, Česko","Pod Lipkami","22000","Praha","Smíchov","http://www.hristepraha.cz/images/img/a020ec4640538ac3c1b590dda2c440c6o.jpg","Hřiště je umístěno v členitém terénu mezi ulicemi Podbělohorská, Třístoličná a Pod Lipkami. S plochou cca 5&nbsp;000 m2...","34","Okrouhlík","Nad Klamovku leží velmi rozlehlé, byť poněkud zanedbané hřiště <b>(20)</b>.","playgrounds.properties_80ee566a43c349088eb5d9ce67b50419","2020-11-01T01:30:06.744Z","http://www.hristepraha.cz/hriste/mapa/okrouhlik","praha-5","Feature"
"playgrounds.geometry_999a76fa3dccd03082d5dd409092b9fb","Point","Česko","Kovanecká, 19093 Praha-Libeň, Česko","Kovanecká","19093","Praha","Libeň","http://www.hristepraha.cz/images/img/c683a709f858fffa58ad782591626365o.jpg","Pár metrů od zastávky tramvaje uvidíte dětské hřiště. Je oplocené a zahrnuje asi tucet prvků. Nejzajímavější atrakci...","56","Park Podvinní, Vysočany ","Před vysočanskou poliklinikou se rozkládá rozsáhlý park<b> (34)</b>. A v něm několik zajímavých míst.","playgrounds.properties_193f4bee33efdabf561f5ee46f306b02","2020-11-01T01:30:06.744Z","http://www.hristepraha.cz/hriste/mapa/park-podvinni-vysocany","praha-9","Feature"
"playgrounds.geometry_599eb63692e9b8ec82fb6e47a0aa211e","Point","Česko","Slovenská 1106/17, 12000 Praha-Vinohrady, Česko","Slovenská 1106/17","12000","Praha","Vinohrady","http://www.hristepraha.cz/images/img/220de6d2a172a3dc56d9cf08d6f12b27o.jpg","Ve velmi členitém terénu je umístěn jeden z nejromantičtějších parků na území města. V parku roste přes 120 druhů...","16","Bezručovy sady","Chcete-li poznat opravdu krásný park, vydejte se na Vinohrady.","playgrounds.properties_1d8f88727d0819e425be1853e278e5ba","2020-11-01T01:30:06.743Z","http://www.hristepraha.cz/hriste/mapa/bezrucovy-sady","praha-10","Feature"
"playgrounds.geometry_c29cae876c48fdb36a43f2d1f31a9e54","Point","Česko","U Sovových mlýnů, 11801 Praha-Malá Strana, Česko","U Sovových mlýnů","11801","Praha","Malá Strana","http://www.hristepraha.cz/images/img/57f2066cfff473d06ee021542e4526b7o.jpg","V parku Kampa, na terase u Rybí restaurace, leží nevelké, ale moderní hřiště pro malé děti (63.A). Zahrnuje asi 10...","93"," Kampa a Karlův most - Kampa","Na malostranském nábřeží Vltavy najdeme dvě menší hřiště, takže jejich návštěvu je vhodné zařadit jako doplňkovou aktivitu při procházce centrem města.","playgrounds.properties_2ac3ec8f6b88248c1c56ef37553a2f73","2020-11-01T01:30:06.742Z","http://www.hristepraha.cz/hriste/mapa/kampa-a-karluv-most-kampa","praha-1","Feature"
"playgrounds.geometry_a3d338b93c3d350c96ae5e8de9498979","Point","Česko","Jilmová, 13000 Praha-Žižkov, Česko","Jilmová","13000","Praha","Žižkov","http://www.hristepraha.cz/images/img/36560329e69a69cedc84075bff7ef1e4o.jpg","Nejlepší bude, pokud půjdete ulicí Strážní, až narazíte na park. V parku (na konci ulice) leží těsně u sebe dvě hřiště...","281","Židovské pece - dopravní hřiště","","playgrounds.properties_c286ca84a16ff5444aff27534bb79363","2020-11-01T01:30:06.746Z","http://www.hristepraha.cz/hriste/mapa/zidovske-pece-dopravni-hriste","praha-3","Feature"
"playgrounds.geometry_6ffa2debe897c83a68458678c486018e","Point","Česko","Roztylské náměstí, 14100 Praha-Záběhlice, Česko","Roztylské náměstí","14100","Praha","Záběhlice","http://www.hristepraha.cz/images/img/7cec3f321cdef9159c34372f6233a5c4o.jpg","První hřiště (75.A) je situováno mezi Jižní spojkou a ulicí Kremnická. Dětské hřiště se skládá ze dvou částí: malé...","112","Spořilov - Roztylské náměstí","Nedaleko od sebe leží dva areály, nejen s dětskými hřišti.","playgrounds.properties_c0635d6590f7209ad8b8a01ef6d729c6","2020-11-01T01:30:06.745Z","http://www.hristepraha.cz/hriste/mapa/sporilov-roztylske-namesti","praha-4","Feature"
"playgrounds.geometry_9d6da1ec4d9e26a366960e913de6f481","Point","Česko","Za Pavilónem, 10700 Praha-Dubeč, Česko","Za Pavilónem","10700","Praha","Dubeč","http://www.hristepraha.cz/images/img/76784e379885b20d1600318b3cd32eb1o.jpg","Za budovou, v níž sídlí pošta a městská policie, se rozkládá několik hřišť. Dětské hřiště (44.A) má převážně dřevěné...","73","Dubeč - hřiště 44.A","Městská část Praha Dubeč disponuje hezčím dětským hřištěm (pro všechny věkové kategorie dětí) než mnohé větší městské části. V areálu se také nachází několik sportovišť.","playgrounds.properties_0edc177a74d998b465d466dc690bbcfb","2020-11-01T01:30:06.743Z","http://www.hristepraha.cz/hriste/mapa/dubec-hriste-44-a","praha-dubec","Feature"
"playgrounds.geometry_61aeb928f3b8d72d4d14b7cdefdb40fc","Point","Česko","Vodnická 440/54, 14900 Praha-Újezd u Průhonic, Česko","Vodnická 440/54","14900","Praha","Újezd u Průhonic","http://www.hristepraha.cz/images/img/6be0c030eefc20e7dff7ca19428571eeo.jpg","Procházku můžete
začít na hřišti v&nbsp;Kateřinkách – ulice Vodnická. Hřiště (94.A) se nalézá u lesa, je...","473","Kateřinky-Milíčov, Vodnická ulice","Pěkná procházka případně projížďka Milíčovským hájem a kolem rybníků.","playgrounds.properties_82b533e9a2258f4c43f909a404d3183d","2020-11-01T01:30:06.743Z","http://www.hristepraha.cz/hriste/mapa/katerinky-milicov-vodnicka-ulice-94-a","praha-ujezd","Feature"
"playgrounds.geometry_c7fa43070dbb9280b1fe6ff1c3960cf5","Point","Česko","Bubenečský tunel, 17100 Praha-Bubeneč, Česko","Bubenečský tunel","17100","Praha","Bubeneč","http://www.hristepraha.cz/images/img/7be728b6a9a60321e553d8d6a4758b18o.jpg","Stromovku tvoří rozlehlý park s hustou sítí asfaltových cest, které se hodí pro cyklistiku i in-line bruslení. Najdeme...","2","Stromovka - hřiště Tramvaj","Stromovka nám nabídne tolik, že se vyplatí zajít sem na celý den.","playgrounds.properties_efa03765258467cc639519357f8efe85","2020-11-01T01:30:06.745Z","http://www.hristepraha.cz/hriste/mapa/stromovka-hriste-tramvaj","praha-7","Feature"
"playgrounds.geometry_24d90dbc878504c611ca332af1273ffe","Point","Česko","U Invalidovny, 180 00 Praha-Karlín, Česko","U Invalidovny","180 00","Praha","Karlín","http://www.hristepraha.cz/images/img/1c18f52371b0ae7328d1cd3effba1818o.jpg","Dětské hřiště (58) se rozkládá v Kaizlových sadech. Po obvodu hřiště sice rostou stromy, ale stínu je málo. Atrakce...","121","Invalidovna - Kaizlovy sady","Popisovaná lokalita zaujme nejen dětským hřištěm. Budete mít možnost srovnat starší a novou architekturu a děti jistě zaujme netradiční vodní soustava!","playgrounds.properties_a6d7a39f1536ba577a9ec8720b75d985","2020-11-01T01:30:06.743Z","http://www.hristepraha.cz/hriste/mapa/invalidovna-kaizlovy-sady","praha-8","Feature"
"playgrounds.geometry_baaa2fbf40b7cf999305a63955eb69ef","Point","Česko","nábřeží Ludvíka Svobody, 11005 Praha-Nové Město, Česko","nábřeží Ludvíka Svobody","11005","Praha","Nové Město","http://www.hristepraha.cz/images/img/0e05fccc3fbe756a7146d4a4a86b8ef5o.jpg","V upraveném parku, kde pěstují především růže, leží pěkné dětské hřiště (3). Část pro malé děti (s atrakcemi jako...","8","Lannova ulice - nábřeží Ludvíka Svobody","Přímo u Vltavy najdeme moderní hřiště, sportoviště a pěkný park.","playgrounds.properties_e1a60c4bb51469a819d3d11146eb1469","2020-11-01T01:30:06.744Z","http://www.hristepraha.cz/hriste/mapa/lannova-ulice-nabrezi-ludvika-svobody","praha-1","Feature"
"playgrounds.geometry_96a11759373b221993736cdefb37cf14","Point","Česko","Mohylová 1964/4, 15500 Praha-Stodůlky, Česko","Mohylová 1964/4","15500","Praha","Stodůlky","http://www.hristepraha.cz/images/img/a1387c5db8d57d20ae2cbb678ae37de9o.jpg","Na dohled stanice metra se u ulice Bronzová rozkládá revitalizovaný komplex několika menších hřišť (53.A). Najdeme zde...","129","Metro Lužiny - U dráčka Soptíka","Okolí stanice Lužiny je na dětská hřiště velmi bohaté. Dvě z nich bychom rádi představili blíže.","playgrounds.properties_36a396f04e946ec78fe2d341f5d7dae3","2020-11-01T01:30:06.744Z","http://www.hristepraha.cz/hriste/mapa/metro-luziny-u-dracka-soptika","praha-13","Feature"
"playgrounds.geometry_7277f7aff5093eed8da6a2668f4ce834","Point","Česko","Opletalova, 1 Praha-Nové Město, Česko","Opletalova","1","Praha","Nové Město","http://www.hristepraha.cz/images/img/5af2cc2ad2b084fcd72aa6258ab8efaao.jpg","Nalézá se na okraji parku (Vrchlického sady), od něhož je odděleno vysokým plotem, což dětem poskytuje dostatek klidu...","14","Vrchlického sady (Hlavní nádraží)","Před Hlavním nádražím vyrostlo moderní, rozsáhlé hřiště <b>(5)</b>, vhodné pro všechny věkové kategorie dětí.","playgrounds.properties_7d0ae83a1874ad0429956c144a744439","2020-11-01T01:30:06.745Z","http://www.hristepraha.cz/hriste/mapa/vrchlickeho-sady-hlavni-nadrazi","praha-1","Feature"
"playgrounds.geometry_76f461c0147a686f1f9a1bba9b5ab665","Point","Česko","Podjezd, 15200 Praha-Malá Chuchle, Česko","Podjezd","15200","Praha","Malá Chuchle","http://www.hristepraha.cz/images/img/118680fc4ea9e103cf25b9e87d7d0008o.jpg","U Branického mostu se rozkládá menší zrekonstruované dětské hřiště (48.A). Výhodou je, že atrakce (multifunkční...","96","Malá Chuchle - Branický most","Výlet je pro všechny, kteří se nebojí trochy fyzické námahy, mají rádi zvířata a chtějí poznat možná nejkrásnější lesní hřiště v Praze.","playgrounds.properties_50829463e67da50fb6c6f4cfabad145e","2020-11-01T01:30:06.744Z","http://www.hristepraha.cz/hriste/mapa/mala-chuchle-branicky-most","praha-velka-chuchle","Feature"
"playgrounds.geometry_48dcb36b83d97b03323aa096bb8d0443","Point","Česko","Malinová, 10600 Praha-Záběhlice, Česko","Malinová","10600","Praha","Záběhlice","http://www.hristepraha.cz/images/img/b7a384cb51a68cebc998b749879eab44o.jpg","Na ulici Malinová leží poměrně velké hřiště (37.A), které zaujme barevností a pestrostí. Obsahuje asi 15 atrakcí. Děti...","210","Zahradní město - park Malinová/Chrpová","Toto sídliště vzniklo původně jako projekt města v zeleni. Proto zde bylo vybudováno více dětských hřišť a později byl revitalizován park.","playgrounds.properties_56ca0cbfa8364e5251246b0f959472ee","2020-11-01T01:30:06.745Z","http://www.hristepraha.cz/hriste/mapa/zahradni-mesto-park-malinova-chrpova","praha-10","Feature"
"playgrounds.geometry_160a8c30e52ec53911b4c2768ffc790a","Point","Česko","Modrá, 155 00 Praha-Stodůlky, Česko","Modrá","155 00","Praha","Stodůlky","http://www.hristepraha.cz/images/img/9bf858de61f4e14add5c39a944b4b7fdo.jpg","U stanice metra Lužiny se rozkládá rozlehlý park. Přestože je místy poněkud zanedbaný, stojí za návštěvu. Procházku...","66","Centrální park Prahy 13","Chcete si prohlédnout Central park? Pak není nutné trmácet se do New Yorku. Stačí zajet na Lužiny!","playgrounds.properties_93da485779b83e903db20ec6ca37c11a","2020-11-01T01:30:06.743Z","http://www.hristepraha.cz/hriste/mapa/centralni-park-prahy-13","praha-13","Feature"
"playgrounds.geometry_cae0af98a1ee05355eacb057cb02ae61","Point","Česko","118 00 Praha-Malá Strana, Česko","","118 00","Praha","Malá Strana","http://www.hristepraha.cz/images/img/ef532d8d6a922c758df5b0de46d601bao.jpg","V zeleni na jeho úbočí leží pět dětských hřišť. Hezké je to u Hladové zdi (21.B), kousek od rozhledny. Děti mohou...","35","Petřín - Hladová zeď ","Vrch Petřín spolu s proslulou rozhlednou patří k dominantám hlavního města.","playgrounds.properties_2fc68054b55691e5e6d29ecc763420f9","2020-11-01T01:30:06.744Z","http://www.hristepraha.cz/hriste/mapa/petrin-hladova-zed","praha-1","Feature"
"playgrounds.geometry_f53bb122c74f7556e9bf04c22871a383","Point","Česko","12000 PRAHA 7 Praha-Vinohrady, Česko","","12000 PRAHA 7","Praha","Vinohrady","http://www.hristepraha.cz/images/img/2f7607158bcb7c2440fecf745ffbd94ao.jpg","Velké moderní hřiště „U draka“ (11.A), vhodné pro všechny věkové kategorie dětí, leží v Riegrových sadech. Zajímavé je...","20","Riegrovy sady - hřiště „U draka“","V katastru dvou městských částí, ale blízko sebe najdeme unikátní spojení hřiště a parku.","playgrounds.properties_a5ce962732bac58097a7386ecace7e60","2020-11-01T01:30:06.744Z","http://www.hristepraha.cz/hriste/mapa/riegrovy-sady-hriste-u-draka","praha-2","Feature"
"playgrounds.geometry_d79b41a4a944314bddb5841d90ce73a1","Point","Česko","Trousilova, 18200 Praha-Kobylisy, Česko","Trousilova","18200","Praha","Kobylisy","http://www.hristepraha.cz/images/img/698225e8c65041c2b1273c5130d233c7o.jpg","První je situováno u ulice Třeboradická (31.A). Má dvě části. Pro nejmenší, s tradičními prvky, jako kolotoč či...","51","Sídliště Kobylisy - hřiště Třeboradická","Lokalita nabízí dvě pěkná moderní hřiště.","playgrounds.properties_b6f429df8643f72593bf1a3a5a746ba5","2020-11-01T01:30:06.745Z","http://www.hristepraha.cz/hriste/mapa/sidliste-kobylisy-hriste-treboradicka","praha-8","Feature"
"playgrounds.geometry_314915eb99897e25916db6115df15ed7","Point","Česko","Bukolská, 18100 Praha-Bohnice, Česko","Bukolská","18100","Praha","Bohnice","http://www.hristepraha.cz/images/img/fe9f3fdee3d4b2f0d729fc8940b7463ao.jpg","U hájovny na okraji Čimického háje (nedaleko ZŠ Hovorčovická) začíná naučná stezka a pohrát si lze na malém lesním...","88","Čimický háj","Čeká nás pěkná procházka a lesní hřiště.","playgrounds.properties_10592299a6252cc5d2661bcc81d44641","2020-11-01T01:30:06.743Z","http://www.hristepraha.cz/hriste/mapa/cimicky-haj","praha-8","Feature"
"playgrounds.geometry_e748dfcea9582e10bbb269078d94cb12","Point","Česko","Slavětínská 316, 19014 Praha-Klánovice, Česko","Slavětínská 316","19014","Praha","Klánovice","http://www.hristepraha.cz/images/img/4e31bd1a5a8b542f4dd279296c3e1855o.jpg","U Masarykovy školy v Klánovicích se nachází menší neoplocené hřiště (47.A) s několika prvky, jako domek se skluzavkou,...","319","Klánovický les - Masarykova ZŠ","Návštěva dětského hřiště není v tomto případě hlavním cílem, ale doplňkem pro výlet, který vám umožní poznat největší les na území Prahy.","playgrounds.properties_552b8586905cf9eff860b9b11a41e403","2020-11-01T01:30:06.743Z","http://www.hristepraha.cz/hriste/mapa/klanovicky-les-masarykova-zs","praha-klanovice","Feature"
"playgrounds.geometry_395974acf4a4155d8ca7575f3fc5320c","Point","Česko","Bubenečský tunel, 17100 Praha-Bubeneč, Česko","Bubenečský tunel","17100","Praha","Bubeneč","http://www.hristepraha.cz/images/img/9c93af34224fa26c43ac7236f63f0624o.jpg","Stromovku tvoří rozlehlý park s hustou sítí asfaltových cest, které se hodí pro cyklistiku i in-line bruslení. Najdeme...","7","Stromovka - hřiště Kaštánek","Stromovka nám nabídne tolik, že se vyplatí zajít sem na celý den.","playgrounds.properties_edec9f9dc43a30b5dcaec01508da70cc","2020-11-01T01:30:06.745Z","http://www.hristepraha.cz/hriste/mapa/stromovka-hriste-kastanek","praha-7","Feature"
"playgrounds.geometry_103c414a61fc86befaf806df141a0ac4","Point","Česko","17100 Praha-Bubeneč, Česko","","17100","Praha","Bubeneč","http://www.hristepraha.cz/images/img/4e5eac80e5c3bf253950d2af6a4e8cb4o.jpg","Stromovku tvoří rozlehlý park s hustou sítí asfaltových cest, které se hodí pro cyklistiku i in-line bruslení. Najdeme...","6","Stromovka - hřiště U psí louky","Stromovka nám nabídne tolik, že se vyplatí zajít sem na celý den.","playgrounds.properties_070616e1209f69d792be03ce094cd6fe","2020-11-01T01:30:06.745Z","http://www.hristepraha.cz/hriste/mapa/stromovka-hriste-u-psi-louky","praha-7","Feature"
"playgrounds.geometry_aacf7b8d1ce37e4b64965dc38768d3be","Point","Česko","Urešova, 148 00 Praha-Kunratice, Česko","Urešova","148 00","Praha","Kunratice","http://www.hristepraha.cz/images/img/f4895510a8afb62b8d111070605e2bb8o.jpg","První (73.A) se nachází v blízkosti tzv. Velkého altánu. Pojedete-li autobusem na stanici Petýrkova, na okraji lesa (u...","118","Kunratický les (východní část) - hřiště 73.B","Kunratický les se rozkládá mezi Kunraticemi, Roztyly a Krčí. Najdeme zde více lesních dětských hřišť. Dvě si představíme blíže.","playgrounds.properties_4196e187ad38fdb199b6fce855f679cf","2020-11-01T01:30:06.743Z","http://www.hristepraha.cz/hriste/mapa/kunraticky-les-vychodni-cast-hriste-73-b","praha-kunratice","Feature"
"playgrounds.geometry_b60ccaa0073194682e41bcc83628e0f8","Point","Česko","Pražačka, CZ - 130 00 Praha-Žižkov, Česko","Pražačka","CZ - 130 00","Praha","Žižkov","http://www.hristepraha.cz/images/img/ded5257351f50776605f1dc041bb94b5o.jpg","Děti si mohou pohrát na několika menších hřištích. První, od ulice Pražačka (Vítkov 2-13.B), je neoplocené a krom...","23","Vítkov - Vítkov 1","Vypravíte-li se na jeden z nejznámějších pražských vrchů, nebudete litovat.","playgrounds.properties_4c191c0015064cf5bdaf8086d2e39467","2020-11-01T01:30:06.745Z","http://www.hristepraha.cz/hriste/mapa/vitkov-vitkov-1","praha-3","Feature"
"playgrounds.geometry_bc61c9b5970068efd03a324c3bbadc0f","Point","Česko","Ottova 919, 15600 Praha-Zbraslav, Česko","Ottova 919","15600","Praha","Zbraslav","http://www.hristepraha.cz/images/img/90c07e8f41e38632acf2bcb76a9cae3bo.jpg","Na rohu ulic Paškova a Tunelářů narazíte na první dětské hřiště (84.A). Na zatravněné (pod atrakcemi leží písek)...","135","Zbraslav - hřiště 84.B","Pokud máte rádi lesní zoo nebo podnikáte výlety do přírody, doporučujeme tuto lokalitu.","playgrounds.properties_b0e232dacbc89e55992b0f99b017ea2a","2020-11-01T01:30:06.746Z","http://www.hristepraha.cz/hriste/mapa/zbraslav-hriste-84-b","praha-zbraslav","Feature"
"playgrounds.geometry_0d48806d18db24e1da3edd1769aa1d19","Point","Česko","Mozartova 261/1, 15000 Praha-Smíchov, Česko","Mozartova 261/1","15000","Praha","Smíchov","http://www.hristepraha.cz/images/img/40bad7b80c8466c45e9c820635345a7fo.jpg","První hřiště (93.A) najdeme
v&nbsp;areálu Sport Mrázovka. Je úplně nové s&nbsp;hezkými dřevěnými prvky.
Povrch tvoří...","477","Mrázovka-Sport Mrázovka","Mrázovka je překvapivě klidný zelený kopec se spoustou hřišť a možností sportovního vyžití. ","playgrounds.properties_d0e6c4aaee172a58015615cac80821d7","2020-11-01T01:30:06.744Z","http://www.hristepraha.cz/hriste/mapa/mrazovka-sport-mrazovka-93-a","praha-5","Feature"
"playgrounds.geometry_c04d2b42f88acbf4321e0e29c7be2c85","Point","Česko","Jilmová 1456/75, 13000 Praha-Žižkov, Česko","Jilmová 1456/75","13000","Praha","Žižkov","http://www.hristepraha.cz/images/img/faf1994ac06cc8148aa0ef3b3098e098o.jpg","Nejlepší bude, pokud půjdete ulicí Strážní, až narazíte na park. V parku (na konci ulice) leží těsně u sebe dvě hřiště...","278","Židovské pece - Židovské pece 2","Podél Jilmové ulice na Žižkově se rozkládá protáhlý park - Židovské pece. Nachází se tam několik hřišť různé velikosti a kvality.","playgrounds.properties_980d6d153e8536a31e70bc897f8280c6","2020-11-01T01:30:06.746Z","http://www.hristepraha.cz/hriste/mapa/zidovske-pece-zidovske-pece-2","praha-3","Feature"
"playgrounds.geometry_f76f9e79a04108f50d9e65f473fc6955","Point","Česko","Vltavanů, 147 00 Praha-Hodkovičky, Česko","Vltavanů","147 00","Praha","Hodkovičky","http://www.hristepraha.cz/images/img/b5b288a4e7413b3409c32b44e0117890o.jpg","Hřiště se rozkládá v blízkosti Branického mostu. Atrakce zaujmou děti všech věkových kategorií. Pro menší jsou určena...","113","Nádraží Braník (dříve Kroužky na Vltavě)","Jedno z nejzajímavějších a nejkrásnějších pražských hřišť <b>(81)</b> najdeme nedaleko Nádraží Braník.","playgrounds.properties_27aacca00b0142fa0db508a65dbb54ce","2020-11-01T01:30:06.744Z","http://www.hristepraha.cz/hriste/mapa/nadrazi-branik-drive-krouzky-na-vltave","praha-4","Feature"
"playgrounds.geometry_a7162236eeb8609d473ca0d2b2dc95cd","Point","Česko","Běluňská, 19300 Praha-Horní Počernice, Česko","Běluňská","19300","Praha","Horní Počernice","http://www.hristepraha.cz/images/img/840ce044e65195caa5465818342e3ac4o.jpg","Dětské hřiště (62.A) se rozkládá v parčíku, u konečné autobusu č. 223. Tvoří ho hned 3 části. První je oplocena vyšším...","89"," Horní Počernice - hřiště 62.A","Lokalita vám nabídne velmi pěkné hřiště a několik zajímavých doprovodných aktivit.","playgrounds.properties_016f6f06cd3c86cd38b10d7c3f6d8227","2020-11-01T01:30:06.742Z","http://www.hristepraha.cz/hriste/mapa/horni-pocernice-hriste-62-a","praha-20","Feature"
"playgrounds.geometry_13886b52fa14bcc03b573c6c539547c7","Point","Česko","Chlupova 1799/4, 15500 Praha-Stodůlky, Česko","Chlupova 1799/4","15500","Praha","Stodůlky","http://www.hristepraha.cz/images/img/f5f860d1fe927eb9bb54be2e2e7b663bo.jpg"," Podstatná část zelené plochy ve vnitrobloku ulice Amforové je zasvěcena dětem (42.A). Na několika místech mohou...","70","Sídliště Lužiny - Bellušova","Panelové domy byly na Lužinách často stavěny do kruhu, tzv. rondely. Uvnitř tak vznikl rozlehlý prostor (vnitroblok) osázený zelení. Často se zde nacházejí mateřské školky, dětská hřiště a sportoviště. Protože se jedná o areál pro místní obyvatele, nebylo bohužel pamatováno na hygienické zázemí. Výhodou obou komplexů je především klid a rozlehlost.","playgrounds.properties_00925c1802b3b3c8956b909ad80e3c5e","2020-11-01T01:30:06.745Z","http://www.hristepraha.cz/hriste/mapa/sidliste-luziny-bellusova","praha-13","Feature"
"playgrounds.geometry_a1ae6c3c33631f6deb6bee682068d878","Point","Česko","Chalabalova, 15500 Praha-Stodůlky, Česko","Chalabalova","15500","Praha","Stodůlky","http://www.hristepraha.cz/images/img/ea5d0aafd4f97d8ba05a7439500f3679o.jpg","Komplex (54) tvoří půltucet dětských hřišť a sportovišť. Půjdete-li od stanice autobusu Mládí, narazíte nejprve na...","91","Chalabalova - Lužiny","Ve svahu nad centrálním parkem ve Stodůlkách revitalizovali několik hřišť.","playgrounds.properties_b56f081afad7ac26ffd5724e0dde8039","2020-11-01T01:30:06.743Z","http://www.hristepraha.cz/hriste/mapa/chalabalova-luziny","praha-13","Feature"
"playgrounds.geometry_9e9f5f8776ca9ca2a91df17e214ae612","Point","Česko","Zavadilova, 16000 Praha-Dejvice, Česko","Zavadilova","16000","Praha","Dejvice","http://www.hristepraha.cz/images/img/5b32cbf9a9dc515aadceac62a2c231b3o.jpg","Dětské hřiště (24) najdete v parku u stanice tramvaje Hadovka. Má 2 části. Oplocená slouží spíše menším dětem. Tvoří ji...","38","Dejvice - Hadovka","Nedaleko Vítězného náměstí můžete navštívit pěkný park s dětskými hřišti. Na své si mohou přijít nejen děti, ale i milovníci umění.","playgrounds.properties_72442272a79b7109575d7dedd8b239b6","2020-11-01T01:30:06.743Z","http://www.hristepraha.cz/hriste/mapa/dejvice-hadovka","praha-6","Feature"
"playgrounds.geometry_8c63f456cc5d89bbb85e60de190a9f6b","Point","Česko","11000 Praha-Nové Město, Česko","","11000","Praha","Nové Město","http://www.hristepraha.cz/images/img/45c76cd5aa31e43a82e6d87097181ab8o.jpg","Zahrada sama nabízí příjemné posezení mezi upravenými keři i prostor ke hrám. Na hřišti (1) se nachází kolem 10...","212","Františkánská zahrada","V samém srdci města najdeme hřiště určené spíše pro mladší děti. Není unikátní velikostí, ale polohou na okraji Františkánské zahrady.","playgrounds.properties_d29a8facb1f521521453d6ac5b7f8b31","2020-11-01T01:30:06.743Z","http://www.hristepraha.cz/hriste/mapa/frantiskanska-zahrada","praha-1","Feature"
"playgrounds.geometry_e8bf4958a7e14083d569d59630b2466f","Point","Česko","U Sparty 553/18, 17000 Praha-Bubeneč, Česko","U Sparty 553/18","17000","Praha","Bubeneč","http://www.hristepraha.cz/images/img/fd82835b0cbf20747cb909afbfd5d58bo.jpg","Dětské hřiště (64) se rozkládá přímo u stadionu fotbalového klubu Sparta (u vstupu č. 4), nedaleko železniční tratě...","106","Sparta","Návštěva tohoto hřiště je ideální pro mladší děti, které zajímá kopaná, protože vám umožní ukázat dětem jeden z největších stadionů v Čechách.","playgrounds.properties_71b8e40421233c9379b8bf4eb71a9b22","2020-11-01T01:30:06.745Z","http://www.hristepraha.cz/hriste/mapa/sparta","praha-7","Feature"
"playgrounds.geometry_5b16b331b1c30abf48c30a834543b405","Point","Česko","K Milíčovu 1036/6, 14900 Praha-Háje, Česko","K Milíčovu 1036/6","14900","Praha","Háje","http://www.hristepraha.cz/images/img/b3e2503e03ab68ee072ecd863c6bcf33o.jpg","Procházku můžete začít na hřišti v&nbsp;Kateřinkách – ulice Vodnická. Hřiště (94.A) se nalézá u lesa, je celodřevěné,...","475","Kateřinky-Milíčov, K Milíčovu","Pěkná procházka případně projížďka Milíčovským hájem a kolem rybníků.","playgrounds.properties_698d2b02c175349a893f3bf57c4c4664","2020-11-01T01:30:06.743Z","http://www.hristepraha.cz/hriste/mapa/katerinky-milicov-k-milicovu-94-c","praha-11","Feature"
"playgrounds.geometry_e53c6bf7d5329579a42cc961e9554378","Point","Česko","Sauerova 3, 13000 Praha-Žižkov, Česko","Sauerova 3","13000","Praha","Žižkov","http://www.hristepraha.cz/images/img/1305000567cd71db297df92b20245a32o.jpg","Vystoupáte-li po schodech na Vrch sv. Kříže, poznáte jedno z nejhezčích pražských hřišť (Vrch sv. kříže západ-14.A)...","27","Vrch sv. Kříže - Vrch sv. kříže východ","Máte rádi vlaky? Jestliže ano, navštivte hřiště nedaleko Olšanského náměstí.","playgrounds.properties_85139c9839bbc49d53bb00381f2734db","2020-11-01T01:30:06.745Z","http://www.hristepraha.cz/hriste/mapa/vrch-sv-krize-vrch-sv-krize-vychod","praha-3","Feature"
"playgrounds.geometry_c176ae4a2eb453d99360226d1d1258ef","Point","Česko","Holečkova 104/4, 15000 Praha-Smíchov, Česko","Holečkova 104/4","15000","Praha","Smíchov","http://www.hristepraha.cz/images/img/708f9b9310d139fcd0459e0312efcb16o.jpg"," Tzv. Dolní hřiště (79.A) u Arbesova náměstí tvoří např. domek s palisádou a prolézacím tubusem, velká multifunkční...","84","Kinského zahrada - Horní hřiště","Na jižním úbočí Petřína se rozkládá upravená zahrada, která ukrývá klasicistně-empírový letohrádek a dvě moderní hřiště.","playgrounds.properties_13923f9f718f17157f109ea31b5c0cd9","2020-11-01T01:30:06.743Z","http://www.hristepraha.cz/hriste/mapa/kinskeho-zahrada-horni-hriste","praha-5","Feature"
"playgrounds.geometry_7675418ee100760d18bb7591a695c391","Point","Česko","Na Hrobci, 12800 Praha-Nové Město, Česko","Na Hrobci","12800","Praha","Nové Město","http://www.hristepraha.cz/images/img/fee8f6af69193c422fb908492f223fe7o.jpg","Krásné a velmi využívané hřiště leží v parčíku u Staré celnice na Výtoni (10). Je osazeno moderními prvky, jako jsou...","19","Výtoň","Praha 2 nabízí více pěkných hřišť, jedno z nich pod Vyšehradem.","playgrounds.properties_45a2081e25c1ac949abd641fd0cb5b20","2020-11-01T01:30:06.745Z","http://www.hristepraha.cz/hriste/mapa/vyton","praha-2","Feature"
"playgrounds.geometry_859d94f3ea203cf849a050a353cd9579","Point","Česko","Tomanova, 16900 Praha-Břevnov, Česko","Tomanova","16900","Praha","Břevnov","http://www.hristepraha.cz/images/img/5afecb6e624b259d9cf435910a21c7d1o.jpg","Podél Tomanovy ulice se rozkládá rozsáhlý prostor zeleně, protkaný několikakilometrovou sítí asfaltových silniček...","48","Ladronka - hřiště Ladronka","Ne dětská hřiště, ale in-line bruslení a cyklostezky, to bývá hlavním lákadlem pro návštěvu Ladronky.","playgrounds.properties_41ff4999927b2d91c7cc8f04378057e5","2020-11-01T01:30:06.744Z","http://www.hristepraha.cz/hriste/mapa/ladronka-hriste-ladronka","praha-6","Feature"
"playgrounds.geometry_0cecb81c99efe02c340bb29e29a35d18","Point","Česko","Na Balkáně 1333/22, 13000 Praha-Žižkov, Česko","Na Balkáně 1333/22","13000","Praha","Žižkov","http://www.hristepraha.cz/images/img/e37810486ed18b50c618bf38fbb84674o.jpg","Dětské hřiště (60.A) najdete na konci ulice Strážní, ovšem na opačném konci než lokalitu Židovské pece. Hřiště se...","99"," Na Krejcárku - hřiště 60.A","Lokalita se skvěle hodí pro rodiny s dětmi různého stáří a také pro ty, kteří chtějí vyzkoušet netradiční sport!","playgrounds.properties_6d024b42ec4011fbddb18508b5d30b4c","2020-11-01T01:30:06.742Z","http://www.hristepraha.cz/hriste/mapa/na-krejcarku-hriste-60-a","praha-3","Feature"
"playgrounds.geometry_350058db5af039ce2c72968201c78d5d","Point","Česko","150 00 Praha-Smíchov, Česko","","150 00","Praha","Smíchov","http://www.hristepraha.cz/images/img/f7f1432ff24f0bdc5a6cd3dc255c41ddo.jpg","První hřiště (93.A) najdeme
v&nbsp;areálu Sport Mrázovka. Je úplně nové s&nbsp;hezkými dřevěnými prvky.
Povrch tvoří...","476","Mrázovka-dolní hřiště","Mrázovka je překvapivě klidný zelený kopec se spoustou hřišť a možností sportovního vyžití. ","playgrounds.properties_086bf3e67dd9854f3da7d70cc8c8b767","2020-11-01T01:30:06.744Z","http://www.hristepraha.cz/hriste/mapa/mrazovka-dolni-hriste-93-c","praha-5","Feature"
"playgrounds.geometry_c4334fedd0fc164cba32e17fdf2f7f9f","Point","Česko","Pod Kapličkou, 10042 Praha-Žižkov, Česko","Pod Kapličkou","10042","Praha","Žižkov","http://www.hristepraha.cz/images/img/d29287adad90609ac96ca19e85471abbo.jpg","Atrakce jsou rozmístěny na ploše vymezené ulicí Pod Kapličkou a zdí hřbitova. Mezi hracími prvky se rozprostírá...","22","Olšanské hřbitovy (Pod Kapličkou)","U zdi starého Židovského hřbitova na Olšanech leží jedno z nejrozsáhlejších hřišť v Praze <b>(12)</b>.","playgrounds.properties_41a4a69fc5ba3e23aa467bdc8b57d47f","2020-11-01T01:30:06.744Z","http://www.hristepraha.cz/hriste/mapa/olsanske-hrbitovy-pod-kaplickou","praha-3","Feature"
"playgrounds.geometry_de97b6e0cbe53aaf3b3a36cad52fcb28","Point","Česko","Na Mlejnku, 147 00 Praha-Braník, Česko","Na Mlejnku","147 00","Praha","Braník","http://www.hristepraha.cz/images/img/cecfe2d4596adb931af40d7e9c0e28cco.jpg"," Hřiště (15) je situováno u ulice Na Mlejnku, do těsného sousedství mostu, od něhož je odděleno bariérou a pásem křovin...","29","Braník, Na Mlejnku","V blízkosti Barrandovského mostu v Braníku se rozkládá jedno z nejrozsáhlejších dětských hřišť v Praze.","playgrounds.properties_ccc91489703b96edffc241da3e0b4242","2020-11-01T01:30:06.743Z","http://www.hristepraha.cz/hriste/mapa/branik-na-mlejnku","praha-4","Feature"
"playgrounds.geometry_af21c37d41805ac0c6f8a990c62a095c","Point","Česko","Turínská, 10900 Praha-Hostivař, Česko","Turínská","10900","Praha","Hostivař","http://www.hristepraha.cz/images/img/1bb90de00262eabdaf47797b7bbf91dao.jpg","Na okraji Horních Měcholup, v lesoparku nedaleko přehrady, leží rozsáhlý sportovní a ubytovací areál Na Šancích (dříve...","122","Horní Měcholupy, areál Na Šancích","Výlet je vhodný pro všechny, kteří rádi sportují.","playgrounds.properties_3721fb7a529defca751b8c055b7cf5a5","2020-11-01T01:30:06.743Z","http://www.hristepraha.cz/hriste/mapa/horni-mecholupy-areal-na-sancich","praha-15","Feature"
"playgrounds.geometry_93d854a58e08aceb05af933f018ec307","Point","Česko","Nad Santoškou 1921/13, 15000 Praha-Smíchov, Česko","Nad Santoškou 1921/13","15000","Praha","Smíchov","http://www.hristepraha.cz/images/img/daaee581ec8b75935c85e86b44ffe326o.jpg","Nově zrekonstruované hřiště (92.A)
leží na horní hraně parku Santoška. Tvoří ho rozlehlá písková...","479","Santoška-Santoška","Zbrusu nová hřiště v krásném parku uprostřed Smíchova.","playgrounds.properties_3a825d333f5235af67588bcf4513bbd1","2020-11-01T01:30:06.745Z","http://www.hristepraha.cz/hriste/mapa/santoska-santoska-92-a","praha-5","Feature"
"playgrounds.geometry_d0d9448b7e27d475bf51e798ac518487","Point","Česko","Vysočanská 816, 19000 Praha-Prosek, Česko","Vysočanská 816","19000","Praha","Prosek","http://www.hristepraha.cz/images/img/9e16a8053e79102e69b3458f68efdf0eo.jpg","Hřiště (35.A) je tvořeno dvěma částmi. První, určená malým dětem, není příliš rozlehlá. Je vybavena skluzavkami,...","57","Park Přátelství - park Přátelství ","Největší dětské hřiště Prahy 9 se rozkládá v Parku Přátelství.","playgrounds.properties_fe3b91100dacfd69e8099fc02585a89a","2020-11-01T01:30:06.744Z","http://www.hristepraha.cz/hriste/mapa/park-pratelstvi-park-pratelstvi","praha-9","Feature"
"playgrounds.geometry_d3f0347d7914970646a89036b04c6384","Point","Česká republika","Hurbanova 1171/5, 14200 Praha-Krč, Česká republika","Hurbanova 1171/5","14200","Praha","Krč","http://www.hristepraha.cz/images/img/842eef26f719d0de862d1051c5614451o.jpg","Dětské hřiště (77.A) se rozkládá mezi ulicemi Štúrova, Na Větrově a V pláni. Nejlepší přístup je ale z ulice...","86","Sídliště Krč - hřiště 77.B","Máte rádi pirátské příběhy? Pak si nenechte ujít návštěvu této lokality!","playgrounds.properties_7fc174405de1d5046a60744ac0070059","2020-11-01T01:30:06.745Z","http://www.hristepraha.cz/hriste/mapa/sidliste-krc-hriste-77-b","praha-4","Feature"
"playgrounds.geometry_471161d68be25e057323e335171502cc","Point","Česko","Libocká, 162 06 Praha-Liboc, Česko","Libocká","162 06","Praha","Liboc","http://www.hristepraha.cz/images/img/bba2aafe9410f863e52ca495cc48843bo.jpg","V prostoru ohraničeném vysokou zdí najdeme krásný lesopark. Rostou v něm převážně duby a je zde několik státem...","53","Hvězda - hřiště 25.A","Místa spjatá s naší historií, pěkná lesní hřiště a příjemnou procházku, to nabízí obora Hvězda.","playgrounds.properties_b1e23cc43b5ead6e25b98ca68270b1c6","2020-11-01T01:30:06.743Z","http://www.hristepraha.cz/hriste/mapa/hvezda-hriste-25-a","praha-6","Feature"
"playgrounds.geometry_f18fe2f046fdb4fd9564564c02192ac7","Point","Česko","Bukovecká, 199 00 Praha-Letňany, Česko","Bukovecká","199 00","Praha","Letňany","http://www.hristepraha.cz/images/img/93c4f44e74955219089c29c2dea65615o.jpg","Dětské hřiště náleží k rozsáhlému sportovnímu komplexu (46), který je oplocen. Hřiště se skládá z několika částí...","127","Letňany","Městská část Letňany je hojně vybavena dětskými hřišti. Největší a nejmodernější leží na sídlišti nedalo ulice Tupolevovy.","playgrounds.properties_eb88cbcacf2183ca5dba1aca2b901be8","2020-11-01T01:30:06.744Z","http://www.hristepraha.cz/hriste/mapa/letnany","praha-18","Feature"
"playgrounds.geometry_b032eb014d73327027f3d6773717c8fa","Point","Česko","Pod Strání 2162/23, 10000 Praha-Strašnice, Česko","Pod Strání 2162/23","10000","Praha","Strašnice","http://www.hristepraha.cz/images/img/1ee11abcf386552025d80f4b0447fc88o.jpg","Dětské hřiště (68) je lokalizováno u křižovatky ulic Nedvězská a Pod strání. Je oplocené, pod atrakce položili kačírek...","105","Sídliště Skalka","Na sídlišti Skalka, blízko metra se rozkládá středně velké hřiště.","playgrounds.properties_c64d5583dad95dd3dcc40c7ba453f985","2020-11-01T01:30:06.745Z","http://www.hristepraha.cz/hriste/mapa/sidliste-skalka","praha-10","Feature"
"playgrounds.geometry_b48d9c2ad7e3491de81f7dc7d8b98a7f","Point","Česko","Praha-Malešice, Česko","","","Praha","Malešice","http://www.hristepraha.cz/images/img/fc729a4e512de7b858f320408d0c6f67o.jpg","Areál Malešického parku se rozkládá na svahu, nad ulicemi Počernická a Cerhenická. V roce 2013 proběhla revitalizace...","50","Malešický park","Díky revitalizaci získala Praha unikátní hrací prostor, který slouží nejen hrám, ale také rozvoji technického myšlení.","playgrounds.properties_c26cd3ee1dd4e20019c6bee81b3f3728","2020-11-01T01:30:06.744Z","http://www.hristepraha.cz/hriste/mapa/malesicky-park","praha-10","Feature"
"playgrounds.geometry_5dfa1cc21fbc805174c7a44a13c68425","Point","Česko","Slezská, 12009 Praha-Vinohrady, Česko","Slezská","12009","Praha","Vinohrady","http://www.hristepraha.cz/images/img/ea2efbad1a90884f678944e8c9b54c99o.jpg","Dominantu představuje hrací prvek ve tvaru věže, která ve zmenšeném měřítku kopíruje nedalekou věž vodárenskou. Věž je...","12","U Vodárny, Praha 2","Hřiště U Vodárny <b>(8)</b> patří k nejkrásnějším v Praze a po právu získalo titul „Nejlepší dřevěné hřiště“.","playgrounds.properties_530dd1dc5ebe86e39623762b86881901","2020-11-01T01:30:06.745Z","http://www.hristepraha.cz/hriste/mapa/u-vodarny-praha-2","praha-2","Feature"
"playgrounds.geometry_a19290a9e825f72e7ac819e0ccb57c28","Point","Česko","Přecechtělova 2431/31, 15500 Praha-Stodůlky, Česko","Přecechtělova 2431/31","15500","Praha","Stodůlky","http://www.hristepraha.cz/images/img/95b27f3d2f8e1b96a5151433a0970f5bo.jpg","Hřiště se rozkládají mezi panelovými domy. Zjednodušeně lze říci, že tvoří dvě skupiny. První (52.A) se rozkládá mezi...","109","Velká Ohrada - oblast 52.A","Na sídlišti Velká Ohrada lze nedaleko od sebe navštívit skoro tucet hřišť!","playgrounds.properties_1301a34ab6db2f155498ec6be2821ffa","2020-11-01T01:30:06.745Z","http://www.hristepraha.cz/hriste/mapa/velka-ohrada-oblast-52-a","praha-13","Feature"
"playgrounds.geometry_217bdf92d6f794f9b08c7197851bcb70","Point","Česko","Podolské nábřeží, 12800 Praha-Podolí, Česko","Podolské nábřeží","12800","Praha","Podolí","http://www.hristepraha.cz/images/img/c15dd9b0a725456aac8fede4acd96330o.jpg","Dětské hřiště (17.A) se nachází v bezprostřední blízkosti tramvajové zastávky. Děti mohou zkusit asi tucet atrakcí,...","32","Podolská vodárna - senior park a sportoviště","V blízkosti této monumentální stavby leží nedaleko od sebe dětská hřiště a několik sportovišť vhodných pro všechny věkové kategorie, včetně seniorů!","playgrounds.properties_ebe5825261f9fc1ac71e31df3cca9a72","2020-11-01T01:30:06.744Z","http://www.hristepraha.cz/hriste/mapa/podolska-vodarna-senior-park-a-sportoviste","praha-4","Feature"
"playgrounds.geometry_3d04d449b070605340621df566069813","Point","Česko","Praha-Modřany, Česko","","","Praha","Modřany","http://www.hristepraha.cz/images/img/896153ea5b00706673f70877e0704372o.jpg","Prostor u ZŠ Mráčkova (profesora Švejcara) byl přetvořen v moderní sportovně rekreační komplex (39). Je velmi členitý,...","60","Vosa, Modřany","Vosa v Modřanech představuje pěkný multifunkční areál.","playgrounds.properties_fed67731dd95165633ad313abbe152c3","2020-11-01T01:30:06.745Z","http://www.hristepraha.cz/hriste/mapa/vosa-modrany","praha-12","Feature"
"playgrounds.geometry_707fe711bffe8003e965f0a62970276f","Point","Česko","Bendova, 16300 Praha-Řepy, Česko","Bendova","16300","Praha","Řepy","http://www.hristepraha.cz/images/img/39a906f3e2a59a3b4321befd7870f565o.jpg","Hřiště (78) se nalézá mezi stromy, takže komplex působí jako park. Na ploše je rozmístěno asi tucet atrakcí. Jedná se...","80","Řepy","Městská část Řepy disponuje pěknými hřišti. Jedno z nich, navíc určené i seniorům, se rozkládá ve čtvrti Blatiny, nedaleko ulic Bendova a Španielova.","playgrounds.properties_a1411f65be9f22d001aaa53ba55ac6cc","2020-11-01T01:30:06.744Z","http://www.hristepraha.cz/hriste/mapa/repy","praha-17","Feature"
"playgrounds.geometry_870d19e72c27d0293123d315e79a4efa","Point","Česko","Jilmová 1399/47, 13000 Praha-Žižkov, Česko","Jilmová 1399/47","13000","Praha","Žižkov","http://www.hristepraha.cz/images/img/909fdbffa72a25153042ec3e7761141do.jpg","Nejlepší bude, pokud půjdete ulicí Strážní, až narazíte na park. V parku (na konci ulice) leží těsně u sebe dvě hřiště...","280","Židovské pece - Jilmová","Podél Jilmové ulice na Žižkově se rozkládá protáhlý park - Židovské pece. Nachází se tam několik hřišť různé velikosti a kvality.","playgrounds.properties_54dc0485b540d5556a4314786cc4ab69","2020-11-01T01:30:06.746Z","http://www.hristepraha.cz/hriste/mapa/zidovske-pece-jilmova","praha-3","Feature"
"playgrounds.geometry_0ce77d29d3ee65ef51d8ffc902eb82e3","Point","Česko","18000 Praha-Libeň, Česko","","18000","Praha","Libeň","http://www.hristepraha.cz/images/img/4f53988b11211ca862177a3d72420a9co.jpg","Výlet začneme v Thomayerových sadech, které se táhnou podél jednoho z vltavských ramen a potoka Rokytky, jenž zde ústí...","282","Stará Libeň - Thomayerovy sady","Lákadlem pro využití volného času budou nejen hřiště, ale i několik zajímavých míst.","playgrounds.properties_9ae32cb065cf76ab34a8679d2b1f5347","2020-11-01T01:30:06.745Z","http://www.hristepraha.cz/hriste/mapa/stara-liben-thomayerovy-sady","praha-8","Feature"
"playgrounds.geometry_6ffe72dc179cab9b4e50ac82feadd4b1","Point","Česko","Komárovská 416/22, 19300 Praha-Horní Počernice, Česko","Komárovská 416/22","19300","Praha","Horní Počernice","http://www.hristepraha.cz/images/img/b34b7ee471a5dc4384315a6d8e6e8659o.jpg","Dětské hřiště (62.A) se rozkládá v parčíku, u konečné autobusu č. 223. Tvoří ho hned 3 části. První je oplocena vyšším...","90"," Horní Počernice - hřiště 62.B","Lokalita vám nabídne velmi pěkné hřiště a několik zajímavých doprovodných aktivit.","playgrounds.properties_0f2733051d6441b822f4867a15c6eae8","2020-11-01T01:30:06.742Z","http://www.hristepraha.cz/hriste/mapa/horni-pocernice-hriste-62-b","praha-20","Feature"
"playgrounds.geometry_d9172e6b9397d94420e1dda45663372f","Point","Česko","Hořejší nábřeží, 17704 Praha-Smíchov, Česko","Hořejší nábřeží","17704","Praha","Smíchov","http://www.hristepraha.cz/images/img/27b7261cbc9efa1fa4a6371f32242eafo.jpg","Dětské hřiště (18) je umístěno pod stromy, mezi řekou a Hořejším nábřežím. Povrch je travnatý nebo písčitý, stromy...","30","Aréna"," Na vltavském nábřeží Smíchova leží komplex několika hřišť.","playgrounds.properties_23b9d04db68979a7701ef7dc9aa18d33","2020-11-01T01:30:06.743Z","http://www.hristepraha.cz/hriste/mapa/arena","praha-5","Feature"
"playgrounds.geometry_c5af457338dc99bbed3582c5b0c77085","Point","Česko","Bubenečský tunel, 17100 Praha-Bubeneč, Česko","Bubenečský tunel","17100","Praha","Bubeneč","http://www.hristepraha.cz/images/img/28edde2fd5381bc07d800e7a547684c3o.jpg","Stromovku tvoří rozlehlý park s hustou sítí asfaltových cest, které se hodí pro cyklistiku i in-line bruslení. Najdeme...","5","Stromovka - hřiště U malé říčky","Stromovka nám nabídne tolik, že se vyplatí zajít sem na celý den.","playgrounds.properties_a1db56021ddb4deacce4c91edce38304","2020-11-01T01:30:06.745Z","http://www.hristepraha.cz/hriste/mapa/stromovka-hriste-u-male-ricky","praha-7","Feature"
"playgrounds.geometry_a73c5a9f805b228150027309d4941eb6","Point","Česko","Přípotoční 958/13, 10100 Praha-Vršovice, Česko","Přípotoční 958/13","10100","Praha","Vršovice","http://www.hristepraha.cz/images/img/5374b6c180dcd9e941150cdb4d17693eo.jpg","Dětské hřiště (67) najdete na konci ulice Oblouková, v malém parčíku ulice Přípotoční. Je oplocené vysokým kovovým...","104","Vršovice, Přípotoční","Pokud vás oslovil osud fotbalového klubu Bohemians, měli byste s dětmi navštívit tuto lokalitu.","playgrounds.properties_60c9521728adc3f0b8a846b9131d9913","2020-11-01T01:30:06.745Z","http://www.hristepraha.cz/hriste/mapa/vrsovice-pripotocni","praha-10","Feature"
"playgrounds.geometry_a22373bc0bc4466bd072b46ae535a698","Point","Česko","Lotyšská 649/6, 16000 Praha-Bubeneč, Česko","Lotyšská 649/6","16000","Praha","Bubeneč","http://www.hristepraha.cz/images/img/c275ec3f1cbd16724c0249998deb8bcdo.jpg","Dětské hřiště (45) najdete na ulici Lotyšská. Nachází se mezi vzrostlými stromy, které poskytují částečný stín. Využít...","68","Dejvice - Lotyšská","Mezi Vítězným náměstím a náměstím Interbrigády se rozkládá park a v něm hřiště.","playgrounds.properties_8b99b17479047302b7e9d042189dc867","2020-11-01T01:30:06.743Z","http://www.hristepraha.cz/hriste/mapa/dejvice-lotysska","praha-6","Feature"
"playgrounds.geometry_477e72ee0197162cb232a1ffa599a95f","Point","Česko","Na Hroudě, 10000 Praha-Strašnice, Česko","Na Hroudě","10000","Praha","Strašnice","http://www.hristepraha.cz/images/img/bd8d0f7eec377278727770920fa19b46o.jpg","Areál tvoří dětské hřiště pro mladší děti, vodní svět pro všechny, lanová centra, několik sportovišť, např. na plážový...","59","Gutova","Areál Gutova představuje rozlehlý komplex <b>(36)</b>, kde možnost ke hrám najdou nejen děti, ale i dospělí. Unikátní je zejména vodní hřiště.","playgrounds.properties_f555b50eb4a7b1da536f3c782b6f3af7","2020-11-01T01:30:06.743Z","http://www.hristepraha.cz/hriste/mapa/gutova","praha-10","Feature"
"playgrounds.geometry_5efbd65a58893a580013bfe36841bbe9","Point","Česko","Kapraďová 2649/6, 10600 Praha-Záběhlice, Česko","Kapraďová 2649/6","10600","Praha","Záběhlice","http://www.hristepraha.cz/images/img/9316f53ef27795fe3b806d971d04e0d5o.jpg","Na ulici Malinová leží poměrně velké hřiště (37.A), které zaujme barevností a pestrostí. Obsahuje asi 15 atrakcí. Děti...","209","Zahradní město - Sasanková/Kapraďová","Toto sídliště vzniklo původně jako projekt města v zeleni. Proto zde bylo vybudováno více dětských hřišť a později byl revitalizován park.","playgrounds.properties_2b9305eabcb93c4681324667dd60e95f","2020-11-01T01:30:06.746Z","http://www.hristepraha.cz/hriste/mapa/zahradni-mesto-sasankova-kapradova","praha-10","Feature"
"playgrounds.geometry_eb6cafe7921224f7cb85deb2f49fa281","Point","Česko","Řepčická, 10200 Praha-Hostivař, Česko","Řepčická","10200","Praha","Hostivař","http://www.hristepraha.cz/images/img/7ca829f532bdc5917e6b59de4c7290b4o.jpg","Popis: Asi 300 m od prodejny Lidl v Hornoměcholupské ulici se na okraji louky rozkládá první hřiště (43.A). Tvoří ho...","71","Hostivařský lesopark (východní část) - hřiště 43.A","Trasa je vhodným polodenním rodinným výletem.","playgrounds.properties_51a3e87a047bc6497aafb24cc0dee4fa","2020-11-01T01:30:06.743Z","http://www.hristepraha.cz/hriste/mapa/hostivarsky-lesopark-vychodni-cast-hriste-43-a","praha-15","Feature"
"playgrounds.geometry_86f136a16fe8243a249c3cc51604d29a","Point","Česko","Za Brumlovkou, 14000 Praha-Michle, Česko","Za Brumlovkou","14000","Praha","Michle","http://www.hristepraha.cz/images/img/63c85d8fea3a65f4a0888e30607c53a7o.jpg","Pokud nevíte, jak si architekti představují ideální kancelářskou a nákupní čtvrť 
21. století, vydejte se na Brumlovku...","301","Brumlovka","Nedaleko metra Budějovická se rozkládá administrativně obchodní komplex Brumlovka, jehož součástí je také moderní dětské hřiště (88).","playgrounds.properties_a7b8358eef789afde27e079503b29faf","2020-11-01T01:30:06.743Z","http://www.hristepraha.cz/hriste/mapa/brumlovka","praha-4","Feature"
"playgrounds.geometry_e0c162fe6651583b0f786331d3d1c745","Point","Česko","Tomanova 1331/50, 16900 Praha-Břevnov, Česko","Tomanova 1331/50","16900","Praha","Břevnov","http://www.hristepraha.cz/images/img/13a4c2fbc47e72c10f571972dfa44f82o.jpg","Podél Tomanovy ulice se rozkládá rozsáhlý prostor zeleně, protkaný několikakilometrovou sítí asfaltových silniček...","49","Ladronka - hřiště Tomanova","Ne dětská hřiště, ale in-line bruslení a cyklostezky, to bývá hlavním lákadlem pro návštěvu Ladronky.","playgrounds.properties_ccd078c15fdc720966c477e68bc62f5b","2020-11-01T01:30:06.744Z","http://www.hristepraha.cz/hriste/mapa/ladronka-hriste-tomanova","praha-6","Feature"
"playgrounds.geometry_07c012eb06bbcf9004330072cc103e3f","Point","Česko","Donovalská, 148 00 Praha-Chodov, Česko","Donovalská","148 00","Praha","Chodov","http://www.hristepraha.cz/images/img/fc74a77f14e88b7eb2d979da1793fc0co.jpg","V areálu (76) se nachází dětské hřiště, minigolf, discgolf, restaurace, gril, posezení u klavíru i několik soch. Dětské...","342","Chodovská tvrz","V parku, který se rozkládá kolem bývalé vodní tvrze si najde zábavou celá rodina.","playgrounds.properties_f46b9e4c39ae1fd46db044357332dfd7","2020-11-01T01:30:06.743Z","http://www.hristepraha.cz/hriste/mapa/chodovska-tvrz","praha-11","Feature"
"playgrounds.geometry_519b5b7c03390f36b0e8c60dd138a1d8","Point","Česko","Augustinova, 148 00 Praha-Chodov, Česko","Augustinova","148 00","Praha","Chodov","http://www.hristepraha.cz/images/img/a4155c9e832e739cb1c8c6d449159194o.jpg","První (73.A) se nachází v blízkosti tzv. Velkého altánu. Pojedete-li autobusem na stanici Petýrkova, na okraji lesa (u...","117","Kunratický les (východní část) - hřiště 73.A","Kunratický les se rozkládá mezi Kunraticemi, Roztyly a Krčí. Najdeme zde více lesních dětských hřišť. Dvě si představíme blíže.","playgrounds.properties_059c02ce6c9e46b9b914ae12aaf3561c","2020-11-01T01:30:06.743Z","http://www.hristepraha.cz/hriste/mapa/kunraticky-les-vychodni-cast-hriste-73-a","praha-11","Feature"
"playgrounds.geometry_b6af1edd5659cfe68115bb0ab5dc74d4","Point","Česko","Srnečkova, 25092 Praha-Klánovice, Česko","Srnečkova","25092","Praha","Klánovice","http://www.hristepraha.cz/images/img/19b3f6d412fff443cc14bcbed90edda6o.jpg","U Masarykovy školy v Klánovicích se nachází menší neoplocené hřiště (47.A) s několika prvky, jako domek se skluzavkou,...","318","Klánovický les - lesní hřiště","Návštěva dětského hřiště není v tomto případě hlavním cílem, ale doplňkem pro výlet, který vám umožní poznat největší les na území Prahy.","playgrounds.properties_abe365af2626664d6143998cf894bf0c","2020-11-01T01:30:06.743Z","http://www.hristepraha.cz/hriste/mapa/klanovicky-les-lesni-hriste","praha-klanovice","Feature"
"playgrounds.geometry_a424043bcb8ad814fcdd6526f7dbfcd3","Point","Česká republika","14900 Praha-Chodov, Česká republika","","14900","Praha","Chodov","http://www.hristepraha.cz/images/img/0cc84fef3ec017929ac11ce34a81566bo.jpg","Půjdete-li z Opatova ve směru na Háje (prostor parku), na louce nejprve uvidíte lanovou síťovou sestavu...","61","Opatov - hřiště 38.A","U stanic metra Opatov lze navštívit několik hřišť.","playgrounds.properties_5550d1dabebd3fd0b8fac71b1a378749","2020-11-01T01:30:06.744Z","http://www.hristepraha.cz/hriste/mapa/opatov-hriste-38-a","praha-11","Feature"
"playgrounds.geometry_257bb332cd4e774c7d6084207ff7b281","Point","Česko","U Světličky, 16100 Praha-Ruzyně, Česko","U Světličky","16100","Praha","Ruzyně","http://www.hristepraha.cz/images/img/90ec8d73d1b8ef491ca564bd6c90ce18o.jpg","V prostoru ohraničeném vysokou zdí najdeme krásný lesopark. Rostou v něm převážně duby a je zde několik státem...","54","Hvězda - hřiště 25.B","Místa spjatá s naší historií, pěkná lesní hřiště a příjemnou procházku, to nabízí obora Hvězda.","playgrounds.properties_f0e03542db36c4d978eec2fe7340549a","2020-11-01T01:30:06.743Z","http://www.hristepraha.cz/hriste/mapa/hvezda-hriste-25-b","praha-6","Feature"
"playgrounds.geometry_adf91062d43708e19430c674028152aa","Point","Česko","Nad Primaskou, 10000 Praha-Strašnice, Česko","Nad Primaskou","10000","Praha","Strašnice","http://www.hristepraha.cz/images/img/4164bc9f83a20deed85c00a0c96ffd47o.jpg","Hřiště (69) se rozkládá za vysokým plotem, v ulici Nad Primaskou. Pod atrakcemi leží guma nebo pryžové desky. Stromy...","103","Nad Primaskou","Nedaleko metra Strašnická se nachází pěkné dětské hřiště.","playgrounds.properties_cec798f16b46e007f3875254f9ffc468","2020-11-01T01:30:06.744Z","http://www.hristepraha.cz/hriste/mapa/nad-primaskou","praha-10","Feature"
"playgrounds.geometry_eeda51ff018db8a1eff0ba85d8c53af9","Point","Česko","150 00 Praha-Smíchov, Česko","","150 00","Praha","Smíchov","http://www.hristepraha.cz/images/img/d28f94bbdb7f24de7c68b6afdac6494eo.jpg","První hřiště (93.A) najdeme
v&nbsp;areálu Sport Mrázovka. Je úplně nové s&nbsp;hezkými dřevěnými prvky.
Povrch tvoří...","478","Mrázovka-horní hřiště","Mrázovka je překvapivě klidný zelený kopec se spoustou hřišť a možností sportovního vyžití. ","playgrounds.properties_b967f08901c6fbcb6b07678e2060179b","2020-11-01T01:30:06.744Z","http://www.hristepraha.cz/hriste/mapa/mrazovka-horni-hriste-93-b","praha-5","Feature"
"playgrounds.geometry_e3c6b0d9215ee970a1c713aad1becaba","Point","Česko","Podpěrova 1880/1, 15500 Praha-Stodůlky, Česko","Podpěrova 1880/1","15500","Praha","Stodůlky","http://www.hristepraha.cz/images/img/553af3049434988f15354909862ff2f3o.jpg"," Podstatná část zelené plochy ve vnitrobloku ulice Amforové je zasvěcena dětem (42.A). Na několika místech mohou...","69","Sídliště Lužiny - Amforová","Panelové domy byly na Lužinách často stavěny do kruhu, tzv. rondely. Uvnitř tak vznikl rozlehlý prostor (vnitroblok) osázený zelení. Často se zde nacházejí mateřské školky, dětská hřiště a sportoviště. Protože se jedná o areál pro místní obyvatele, nebylo bohužel pamatováno na hygienické zázemí. Výhodou obou komplexů je především klid a rozlehlost.","playgrounds.properties_9eb0ba2e7b449f24392e5ef65734f544","2020-11-01T01:30:06.745Z","http://www.hristepraha.cz/hriste/mapa/sidliste-luziny-amforova","praha-13","Feature"
"playgrounds.geometry_32039eeaf2a8758f18554e7e6126f492","Point","Česko","Masarykovo nábřeží, 11665 Praha-Nové Město, Česko","Masarykovo nábřeží","11665","Praha","Nové Město","http://www.hristepraha.cz/images/img/238b4b5cd2a573ad5ecb6932b5e619bbo.jpg","Hřiště (23) je sice menší, ale netradiční. Kromě klasických prvků, jako houpačky, šplhací síť, skluzavky apod., na něm...","39","Slovanský ostrov (Žofín)","Máte-li rádi Vltavu a vláčky, navštivte Slovanský ostrov.","playgrounds.properties_e93e3b2a30dfea8abe1cfa94d432ed7b","2020-11-01T01:30:06.745Z","http://www.hristepraha.cz/hriste/mapa/slovansky-ostrov-zofin","praha-1","Feature"
"playgrounds.geometry_323b719f6a75ef820650b72e4dd46562","Point","Česká republika","Na Křtině, 14900 Praha-Újezd u Průhonic, Česká republika","Na Křtině","14900","Praha","Újezd u Průhonic","http://www.hristepraha.cz/images/img/d47869aed435382520dab909702dfa82o.jpg","Procházku můžete začít na hřišti v&nbsp;Kateřinkách – ulice Vodnická. Hřiště (94.A) se nalézá u lesa, je celodřevěné,...","474","Kateřinky-Milíčov, lesní hřiště","Pěkná procházka případně projížďka Milíčovským hájem a kolem rybníků.","playgrounds.properties_0fdf4cd76da2b5bee8643c7f09b0ce1b","2020-11-01T01:30:06.743Z","http://www.hristepraha.cz/hriste/mapa/katerinky-milicov-lesni-hriste-94-b","praha-ujezd","Feature"
"playgrounds.geometry_852b65cabe8fb8063a045693f8973cec","Point","Česko","Benákova 1114/4, 18200 Praha-Kobylisy, Česko","Benákova 1114/4","18200","Praha","Kobylisy","http://www.hristepraha.cz/images/img/63dda228196ba3c4654178047fd5b5a8o.jpg","První je situováno u ulice Třeboradická (31.A). Má dvě části. Pro nejmenší, s tradičními prvky, jako kolotoč či...","52","Sídliště Kobylisy - hřiště Benákova","Lokalita nabízí dvě pěkná moderní hřiště.","playgrounds.properties_c04eb7aa78aa84163f2db95daca61b72","2020-11-01T01:30:06.745Z","http://www.hristepraha.cz/hriste/mapa/sidliste-kobylisy-hriste-benakova","praha-8","Feature"
"playgrounds.geometry_95e1991b3da34951b7ffc7c3f749a4ae","Point","Česko","K Jezeru, 149 00 Praha-Hostivař, Česko","K Jezeru","149 00","Praha","Hostivař","http://www.hristepraha.cz/images/img/ebb19acc8953f38580c7527668b889ddo.jpg","Naši cestu můžete začít např. v ulici K obecním hájovnám. Na jejím konci leží hájenka a u ní se rozkládá ""Divoká...","268","Lokalita Hostivařský lesopark, západ - hřiště 56.B","Hostivařský lesopark představuje jednu ze zelených oáz hlavního města. Najdete zde dětská hřiště i další zajímavá místa.","playgrounds.properties_75ce936cccfd8465d5aaa3c27e1d2173","2020-11-01T01:30:06.744Z","http://www.hristepraha.cz/hriste/mapa/lokalita-hostivarsky-lesopark-zapad-hriste-56-b","praha-15","Feature"
"playgrounds.geometry_b5d7291eae0886c49ae0687a94ad1014","Point","Česko","Vilímkova, 15600 Praha-Zbraslav, Česko","Vilímkova","15600","Praha","Zbraslav","http://www.hristepraha.cz/images/img/4af067175496bc00cb560aff7226dd5eo.jpg","Na rohu ulic Paškova a Tunelářů narazíte na první dětské hřiště (84.A). Na zatravněné (pod atrakcemi leží písek)...","134","Zbraslav - hřiště 84.A","Pokud máte rádi lesní zoo nebo podnikáte výlety do přírody, doporučujeme tuto lokalitu.","playgrounds.properties_6a0cb9170650193de2be0fd4d65e198a","2020-11-01T01:30:06.746Z","http://www.hristepraha.cz/hriste/mapa/zbraslav-hriste-84-a","praha-zbraslav","Feature"
"playgrounds.geometry_91af11b89df56f294db04c5d3cefe246","Point","Česko","Jilmová 1451/65, 13000 Praha-Žižkov, Česko","Jilmová 1451/65","13000","Praha","Žižkov","http://www.hristepraha.cz/images/img/b5ada8404f965457be11706ce489e6b6o.jpg","Nejlepší bude, pokud půjdete ulicí Strážní, až narazíte na park. V parku (na konci ulice) leží těsně u sebe dvě hřiště...","279","Židovské pece - Židovské pece 1","Podél Jilmové ulice na Žižkově se rozkládá protáhlý park - Židovské pece. Nachází se tam několik hřišť různé velikosti a kvality.","playgrounds.properties_1a49df4cf10cd59ab6b877c1da9e21d8","2020-11-01T01:30:06.746Z","http://www.hristepraha.cz/hriste/mapa/zidovske-pece-zidovske-pece-1","praha-3","Feature"
"playgrounds.geometry_83dc7366921a3374ba751c864c49a630","Point","Česko","12800 Praha-Vyšehrad, Česko","","12800","Praha","Vyšehrad","http://www.hristepraha.cz/images/img/2f24d0f7bf8ccdad53bd4545c01da455o.jpg","Vyšehrad je místo, kterým „kráčela historie“. Proto nepřekvapí, že dětské hřiště (určené spíše mladším dětem) připomíná...","15","Vyšehrad","Návštěvu bájemi opředeného místa byste si neměli nechat ujít!","playgrounds.properties_3bc137441e073188046346f25ca21305","2020-11-01T01:30:06.745Z","http://www.hristepraha.cz/hriste/mapa/vysehrad","praha-2","Feature"
"playgrounds.geometry_b3ae13834e64de83548e75e27d8a0f77","Point","Česko","Bronzová 2026/33, 15500 Praha-Stodůlky, Česko","Bronzová 2026/33","15500","Praha","Stodůlky","http://www.hristepraha.cz/images/img/005de3b7dc2360817e74045774541d9do.jpg","Na dohled stanice metra se u ulice Bronzová rozkládá revitalizovaný komplex několika menších hřišť (53.A). Najdeme zde...","128","Metro Lužiny - Bronzová","Okolí stanice Lužiny je na dětská hřiště velmi bohaté. Dvě z nich bychom rádi představili blíže.","playgrounds.properties_c014654a8c530fe2bf1a1fd2d06646d8","2020-11-01T01:30:06.744Z","http://www.hristepraha.cz/hriste/mapa/metro-luziny-bronzova","praha-13","Feature"
"playgrounds.geometry_fc748761fe79bc2046e2bd00b88672d0","Point","Česko","Cihlářská 731/12, 19000 Praha-Prosek, Česko","Cihlářská 731/12","19000","Praha","Prosek","http://www.hristepraha.cz/images/img/9e04f6e5c0355483d51d71fc9ece6e81o.jpg","Hřiště (35.A) je tvořeno dvěma částmi. První, určená malým dětem, není příliš rozlehlá. Je vybavena skluzavkami,...","58","Park Přátelství - Pískovcová ulice ","Největší dětské hřiště Prahy 9 se rozkládá v Parku Přátelství.","playgrounds.properties_b774c6a0cc3a6c975ea49b1b6df210ad","2020-11-01T01:30:06.744Z","http://www.hristepraha.cz/hriste/mapa/park-pratelstvi-piskovcova-ulice","praha-9","Feature"
"playgrounds.geometry_ed1435c84db973e05759912686a35ccb","Point","Česko","U Boroviček, 16300 Praha-Řepy, Česko","U Boroviček","16300","Praha","Řepy","http://www.hristepraha.cz/images/img/9f49c7b72535475321c7ff9475ab39a2o.jpg","Hřiště (19) leží mezi ulicemi U Boroviček a Opuková. Vchod je z ulice Opuková, ale příjezd autem je lepší ulicí U...","37","Řepy, Fialka","Dětské hřiště, areál BMX, naučná stezka a možnost shlédnout dětské divadelní představení. To vše poskytne Fialka.","playgrounds.properties_af1f99d355ebe0e88b4a8ab6be7bad67","2020-11-01T01:30:06.744Z","http://www.hristepraha.cz/hriste/mapa/repy-fialka","praha-17","Feature"
"playgrounds.geometry_2bb6e25132dd42bf20e77d73dd855e02","Point","Česko","Bubenečský tunel, 17100 Praha-Bubeneč, Česko","Bubenečský tunel","17100","Praha","Bubeneč","http://www.hristepraha.cz/images/img/286d6cd241c78080e06f90bec1159af8o.jpg","Stromovku tvoří rozlehlý park s hustou sítí asfaltových cest, které se hodí pro cyklistiku i in-line bruslení. Najdeme...","4","Stromovka - hřiště U platanu","Stromovka nám nabídne tolik, že se vyplatí zajít sem na celý den.","playgrounds.properties_0450f42364411800070349e0f86368b7","2020-11-01T01:30:06.745Z","http://www.hristepraha.cz/hriste/mapa/stromovka-hriste-u-platanu","praha-7","Feature"
"playgrounds.geometry_50f8f42cc6b122365cf45146c8f9e6cc","Point","Česko","Semanského, 10400 Praha-Uhříněves, Česko","Semanského","10400","Praha","Uhříněves","http://www.hristepraha.cz/images/img/14b06ad56682453aef9d9032e76837f5o.jpg","Cestu doporučujeme zahájit na Novém náměstí, kde mj. sídlí městské muzeum. Za bytovými domy (směrem k vlakové trati)...","130","Uhříněves - hřiště 82.A","Hřiště, lesopark a další zajímavá místa, to je Uhříněves.","playgrounds.properties_796045a186b997db6b45918a9923cc82","2020-11-01T01:30:06.745Z","http://www.hristepraha.cz/hriste/mapa/uhrineves-hriste-82-a","praha-22","Feature"
